{
  "type": "FeatureCollection",
  "name": "class_zones",
  "features": [
    {
      "type": "Feature",
      "properties": {
        "building_id": "way/45600403",
        "building_name": "Corporation Administration",
        "floor": 1,
        "zone_id": "15_left",
        "label": "Left side, 1st floor",
        "classrooms": [
          "100",
          "100A",
          "101",
          "101A",
          "C102",
          "103",
          "104",
          "105",
          "106",
          "107",
          "108",
          "109",
          "110",
          "111",
          "112",
          "113",
          "114",
          "115",
          "116",
          "117",
          "118"
        ],
        "room_min": 210,
        "room_max": 240
      },
      "geometry": {
        "type": "Polygon",
        "coordinates": [
          [
            [
              -120.6601449,
              35.3033324
            ],
            [
              -120.660655,
              35.3032988
            ],
            [
              -120.6606505,
              35.3032125
            ],
            [
              -120.6603867,
              35.3032303
            ],
            [
              -120.660367,
              35.3031634
            ],
            [
              -120.6601117,
              35.30317625
            ],
            [
              -120.660124,
              35.3033051
            ],
            [
              -120.6601426,
              35.3033034
            ],
            [
              -120.6601449,
              35.3033324
            ]
          ]
        ]
      }
    },
    {
      "type": "Feature",
      "properties": {
        "building_id": "way/45600403",
        "building_name": "Corporation Administration",
        "floor": 1,
        "zone_id": "15_right",
        "label": "Right side, 1st floor",
        "classrooms": [
          "115A",
          "115B",
          "119",
          "120",
          "121",
          "122",
          "123",
          "124",
          "125",
          "126",
          "127",
          "128",
          "129",
          "130",
          "131",
          "132",
          "133",
          "134",
          "135",
          "C103"
        ],
        "room_min": 241,
        "room_max": 270
      },
      "geometry": {
        "type": "Polygon",
        "coordinates": [
          [
            [
              -120.660367,
              35.3031634
            ],
            [
              -120.6603473,
              35.3030965
            ],
            [
              -120.6605614,
              35.3030553
            ],
            [
              -120.6605343,
              35.3029579
            ],
            [
              -120.6604532,
              35.3029742
            ],
            [
              -120.6604561,
              35.3029884
            ],
            [
              -120.6602251,
              35.303033
            ],
            [
              -120.6602071,
              35.3030337
            ],
            [
              -120.6602052,
              35.3029933
            ],
            [
              -120.6601525,
              35.3029945
            ],
            [
              -120.6601535,
              35.3030242
            ],
            [
              -120.6601138,
              35.3030254
            ],
            [
              -120.660115,
              35.3030468
            ],
            [
              -120.6600994,
              35.3030474
            ],
            [
              -120.6601117,
              35.30317625
            ],
            [
              -120.660367,
              35.3031634
            ]
          ]
        ]
      }
    },
    {
      "type": "Feature",
      "properties": {
        "building_id": "way/43738023",
        "building_name": "Orfalea Family and ASI Children's Center",
        "floor": 1,
        "zone_id": "133_left",
        "label": "Left side, 1st floor",
        "classrooms": [
          "101",
          "105",
          "106",
          "106B",
          "107",
          "108",
          "109",
          "104",
          "110",
          "111",
          "113",
          "C103",
          "114",
          "114A",
          "C102",
          "C101",
          "124",
          "123",
          "125",
          "126"
        ]
      },
      "geometry": {
        "type": "Polygon",
        "coordinates": [
          [
            [
              -120.66273445,
              35.29726105
            ],
            [
              -120.6625259,
              35.2973281
            ],
            [
              -120.6625316,
              35.2973401
            ],
            [
              -120.6624967,
              35.2973513
            ],
            [
              -120.6625199,
              35.2973994
            ],
            [
              -120.6625362,
              35.2973941
            ],
            [
              -120.6625595,
              35.2974425
            ],
            [
              -120.6625098,
              35.2974585
            ],
            [
              -120.6625239,
              35.2974879
            ],
            [
              -120.6625091,
              35.2974926
            ],
            [
              -120.662529,
              35.297534
            ],
            [
              -120.6625447,
              35.2975289
            ],
            [
              -120.6625523,
              35.2975447
            ],
            [
              -120.6626464,
              35.2975145
            ],
            [
              -120.6626515,
              35.2975251
            ],
            [
              -120.6627844,
              35.2974824
            ],
            [
              -120.6627796,
              35.2974723
            ],
            [
              -120.66282495,
              35.29745775
            ],
            [
              -120.66273445,
              35.29726105
            ]
          ]
        ]
      }
    },
    {
      "type": "Feature",
      "properties": {
        "building_id": "way/43738023",
        "building_name": "Orfalea Family and ASI Children's Center",
        "floor": 1,
        "zone_id": "133_right",
        "label": "Right side, 1st floor",
        "classrooms": [
          "116",
          "127",
          "128",
          "129",
          "130",
          "117",
          "118",
          "119",
          "120",
          "121"
        ]
      },
      "geometry": {
        "type": "Polygon",
        "coordinates": [
          [
            [
              -120.66282495,
              35.29745775
            ],
            [
              -120.6628703,
              35.2974432
            ],
            [
              -120.6628751,
              35.2974533
            ],
            [
              -120.6629693,
              35.297423
            ],
            [
              -120.6629641,
              35.2974121
            ],
            [
              -120.6630739,
              35.2973768
            ],
            [
              -120.6630314,
              35.2972887
            ],
            [
              -120.6629944,
              35.2973006
            ],
            [
              -120.662943,
              35.297194
            ],
            [
              -120.66273445,
              35.29726105
            ],
            [
              -120.66282495,
              35.29745775
            ]
          ]
        ]
      }
    },
    {
      "type": "Feature",
      "properties": {
        "building_id": "way/43738040",
        "building_name": "Chase Hall",
        "floor": 1,
        "zone_id": "115_left",
        "label": "Left side, 1st floor",
        "classrooms": [
          "201",
          "218",
          "217",
          "216",
          "215",
          "C200",
          "S200",
          "C201",
          "210",
          "211",
          "212",
          "213",
          "214",
          "211B",
          "101",
          "107",
          "108",
          "109",
          "110",
          "111",
          "112",
          "113",
          "114",
          "115",
          "C100",
          "107A"
        ]
      },
      "geometry": {
        "type": "Polygon",
        "coordinates": [
          [
            [
              -120.66379995,
              35.29791775
            ],
            [
              -120.6638409,
              35.2980798
            ],
            [
              -120.6637329,
              35.2980977
            ],
            [
              -120.66368895,
              35.29792325
            ],
            [
              -120.66379995,
              35.29791775
            ]
          ]
        ]
      }
    },
    {
      "type": "Feature",
      "properties": {
        "building_id": "way/43738040",
        "building_name": "Chase Hall",
        "floor": 1,
        "zone_id": "115_right",
        "label": "Right side, 1st floor",
        "classrooms": [
          "202",
          "203",
          "204",
          "205",
          "206",
          "207",
          "208",
          "209",
          "209A",
          "209B",
          "210B",
          "102",
          "103",
          "104",
          "105",
          "106",
          "101A",
          "102A",
          "102B",
          "102C",
          "102D",
          "102E",
          "104A"
        ]
      },
      "geometry": {
        "type": "Polygon",
        "coordinates": [
          [
            [
              -120.66379995,
              35.29791775
            ],
            [
              -120.66368895,
              35.29792325
            ],
            [
              -120.6636459,
              35.2977488
            ],
            [
              -120.6637109,
              35.2977379
            ],
            [
              -120.6637169,
              35.2977628
            ],
            [
              -120.663759,
              35.2977557
            ],
            [
              -120.66379995,
              35.29791775
            ]
          ]
        ]
      }
    },
    {
      "type": "Feature",
      "properties": {
        "building_id": "way/45599729",
        "building_name": "Jespersen Hall",
        "floor": 1,
        "zone_id": "116_left",
        "label": "Left side, 1st floor",
        "classrooms": [
          "210",
          "211",
          "212",
          "213",
          "214",
          "215",
          "216",
          "217",
          "210A",
          "209",
          "207",
          "S100",
          "104",
          "106",
          "107",
          "108",
          "109",
          "110",
          "111",
          "112",
          "C100"
        ]
      },
      "geometry": {
        "type": "Polygon",
        "coordinates": [
          [
            [
              -120.6645185,
              35.29775465
            ],
            [
              -120.6644767,
              35.2975963
            ],
            [
              -120.6643662,
              35.2976137
            ],
            [
              -120.66440965,
              35.29777155
            ],
            [
              -120.6645185,
              35.29775465
            ]
          ]
        ]
      }
    },
    {
      "type": "Feature",
      "properties": {
        "building_id": "way/45599729",
        "building_name": "Jespersen Hall",
        "floor": 1,
        "zone_id": "116_right",
        "label": "Right side, 1st floor",
        "classrooms": [
          "C200",
          "200",
          "201",
          "202",
          "203",
          "204",
          "205",
          "206",
          "208",
          "101",
          "C101",
          "L100",
          "113",
          "114",
          "115"
        ]
      },
      "geometry": {
        "type": "Polygon",
        "coordinates": [
          [
            [
              -120.6645185,
              35.29775465
            ],
            [
              -120.66440965,
              35.29777155
            ],
            [
              -120.6644531,
              35.2979294
            ],
            [
              -120.6645472,
              35.297915
            ],
            [
              -120.6645603,
              35.297913
            ],
            [
              -120.6645579,
              35.2979052
            ],
            [
              -120.6645185,
              35.29775465
            ]
          ]
        ]
      }
    },
    {
      "type": "Feature",
      "properties": {
        "building_id": "way/45599746",
        "building_name": "Heron Hall",
        "floor": 1,
        "zone_id": "117_left",
        "label": "Left side, 1st floor",
        "classrooms": [
          "S200",
          "C200",
          "210A",
          "202",
          "203",
          "204",
          "205",
          "206",
          "207",
          "208",
          "209",
          "L100",
          "105",
          "106",
          "107",
          "108",
          "109",
          "110",
          "111",
          "112",
          "113",
          "114"
        ]
      },
      "geometry": {
        "type": "Polygon",
        "coordinates": [
          [
            [
              -120.66437465,
              35.2972341
            ],
            [
              -120.6643293,
              35.2970728
            ],
            [
              -120.6642269,
              35.2970945
            ],
            [
              -120.6642734,
              35.29725395
            ],
            [
              -120.66437465,
              35.2972341
            ]
          ]
        ]
      }
    },
    {
      "type": "Feature",
      "properties": {
        "building_id": "way/45599746",
        "building_name": "Heron Hall",
        "floor": 1,
        "zone_id": "117_right",
        "label": "Right side, 1st floor",
        "classrooms": [
          "S100",
          "C100",
          "101",
          "102",
          "103",
          "104",
          "115",
          "116",
          "211",
          "212",
          "213",
          "214",
          "215",
          "216",
          "217",
          "218",
          "219",
          "210B",
          "211A"
        ]
      },
      "geometry": {
        "type": "Polygon",
        "coordinates": [
          [
            [
              -120.66437465,
              35.2972341
            ],
            [
              -120.6642734,
              35.29725395
            ],
            [
              -120.6643199,
              35.2974134
            ],
            [
              -120.66442,
              35.2973954
            ],
            [
              -120.66437465,
              35.2972341
            ]
          ]
        ]
      }
    },
    {
      "type": "Feature",
      "properties": {
        "building_id": "way/45599752",
        "building_name": "Student Services",
        "floor": 1,
        "zone_id": "124_left",
        "label": "Left side, 1st floor",
        "classrooms": [
          "116",
          "117",
          "S101",
          "E100",
          "117A",
          "118",
          "119",
          "119A",
          "119B",
          "120",
          "S103",
          "C102",
          "122",
          "123",
          "125",
          "126",
          "127",
          "128",
          "129",
          "C101",
          "C100"
        ]
      },
      "geometry": {
        "type": "Polygon",
        "coordinates": [
          [
            [
              -120.6641487,
              35.2985618
            ],
            [
              -120.6641664,
              35.2985587
            ],
            [
              -120.6641909,
              35.2986519
            ],
            [
              -120.6641981,
              35.2986793
            ],
            [
              -120.6640658,
              35.2987025
            ],
            [
              -120.6640604,
              35.298682
            ],
            [
              -120.663787,
              35.29873
            ],
            [
              -120.6637822,
              35.2987116
            ],
            [
              -120.6637308,
              35.2987206
            ],
            [
              -120.6637161,
              35.2986647
            ],
            [
              -120.6637431,
              35.29866
            ],
            [
              -120.6637299,
              35.2986099
            ],
            [
              -120.6639652,
              35.2985686
            ],
            [
              -120.6639669,
              35.298575
            ],
            [
              -120.6640074,
              35.2985679
            ],
            [
              -120.6640404,
              35.2985621
            ],
            [
              -120.6641487,
              35.2985618
            ]
          ]
        ]
      }
    },
    {
      "type": "Feature",
      "properties": {
        "building_id": "way/45599752",
        "building_name": "Student Services",
        "floor": 1,
        "zone_id": "124_right",
        "label": "Right side, 1st floor",
        "classrooms": [
          "101",
          "102",
          "103",
          "104",
          "105",
          "106",
          "107",
          "108",
          "109",
          "110",
          "111",
          "112",
          "113",
          "114A",
          "114",
          "115",
          "S100",
          "136"
        ]
      },
      "geometry": {
        "type": "Polygon",
        "coordinates": [
          [
            [
              -120.6641487,
              35.2985618
            ],
            [
              -120.6640814,
              35.2983063
            ],
            [
              -120.6640722,
              35.2983079
            ],
            [
              -120.6640608,
              35.2982648
            ],
            [
              -120.6640167,
              35.2982725
            ],
            [
              -120.6640194,
              35.2982831
            ],
            [
              -120.6639899,
              35.2982883
            ],
            [
              -120.6639426,
              35.2982965
            ],
            [
              -120.6640024,
              35.2985233
            ],
            [
              -120.664029,
              35.2985186
            ],
            [
              -120.6640404,
              35.2985621
            ],
            [
              -120.6641487,
              35.2985618
            ]
          ]
        ]
      }
    },
    {
      "type": "Feature",
      "properties": {
        "building_id": "way/45644100",
        "building_name": "Construction Innovations Center",
        "floor": 1,
        "zone_id": "186_left",
        "label": "Left side, 1st floor",
        "classrooms": [
          "A003",
          "A002",
          "A001",
          "A004",
          "S100",
          "A101",
          "A102",
          "A103",
          "A104",
          "A105",
          "A106",
          "A108",
          "A100",
          "A110",
          "A109",
          "A100A",
          "A112",
          "A215",
          "A209",
          "A210",
          "A211",
          "A212",
          "A213",
          "A216",
          "A214",
          "A200",
          "A201",
          "A202",
          "A208",
          "A203",
          "A204",
          "A205",
          "A206",
          "A207",
          "A310",
          "A311A",
          "A309",
          "A311",
          "A312",
          "A313",
          "A314",
          "A308",
          "A300",
          "A301",
          "A302",
          "A303",
          "A304",
          "A305",
          "A306",
          "A307",
          "A401",
          "A402"
        ]
      },
      "geometry": {
        "type": "Polygon",
        "coordinates": [
          [
            [
              -120.6630228,
              35.2992913
            ],
            [
              -120.6630653,
              35.2994233
            ],
            [
              -120.6630842,
              35.2994188
            ],
            [
              -120.6631001,
              35.2994156
            ],
            [
              -120.6633277,
              35.2993724
            ],
            [
              -120.6633271,
              35.2993517
            ],
            [
              -120.6633731,
              35.2993425
            ],
            [
              -120.6633623,
              35.2992964
            ],
            [
              -120.6633274,
              35.2991588
            ],
            [
              -120.6631453,
              35.2991904
            ],
            [
              -120.6631521,
              35.2992204
            ],
            [
              -120.6630021,
              35.299247
            ],
            [
              -120.6630228,
              35.2992913
            ]
          ]
        ]
      }
    },
    {
      "type": "Feature",
      "properties": {
        "building_id": "way/45644100",
        "building_name": "Construction Innovations Center",
        "floor": 1,
        "zone_id": "186_right",
        "label": "Right side, 1st floor",
        "classrooms": [
          "B100",
          "B101",
          "B102",
          "B103",
          "B104",
          "B111",
          "E100",
          "B105",
          "B106",
          "B107",
          "B108",
          "B108A",
          "B109",
          "B110",
          "C100",
          "C101",
          "C102",
          "C103",
          "B200",
          "B201",
          "B202",
          "B203",
          "B204",
          "E200",
          "B205",
          "B206",
          "B208",
          "B209",
          "B209A",
          "B210",
          "B211",
          "C200",
          "C201",
          "C202",
          "C203",
          "B300",
          "B301",
          "B302",
          "B303",
          "B303A",
          "E300",
          "B304",
          "B304A",
          "B305",
          "B306",
          "B306A",
          "B307",
          "B308",
          "C300",
          "C301",
          "C302",
          "C303"
        ]
      },
      "geometry": {
        "type": "Polygon",
        "coordinates": [
          [
            [
              -120.6630228,
              35.2992913
            ],
            [
              -120.6623494,
              35.2994174
            ],
            [
              -120.6622743,
              35.2991484
            ],
            [
              -120.6623832,
              35.2991278
            ],
            [
              -120.6624107,
              35.2992179
            ],
            [
              -120.6624884,
              35.2992017
            ],
            [
              -120.662492,
              35.2992125
            ],
            [
              -120.6629684,
              35.2991251
            ],
            [
              -120.6630021,
              35.299247
            ],
            [
              -120.6630228,
              35.2992913
            ]
          ]
        ]
      }
    },
    {
      "type": "Feature",
      "properties": {
        "building_id": "way/42335852",
        "building_name": "Kinesiology",
        "floor": 1,
        "zone_id": "43A_left",
        "label": "Left side, 1st floor",
        "classrooms": [
          "517",
          "E101",
          "150",
          "152",
          "150A",
          "151",
          "151A",
          "151B",
          "E201",
          "250",
          "251",
          "252",
          "253",
          "254",
          "255",
          "256",
          "257",
          "258",
          "C201",
          "250A",
          "250B",
          "E301",
          "350",
          "351",
          "352",
          "353",
          "354",
          "355",
          "356",
          "357",
          "358",
          "359",
          "360",
          "361",
          "362",
          "363",
          "C301",
          "E401",
          "C401",
          "450",
          "451",
          "452",
          "453",
          "454",
          "455",
          "456",
          "451A",
          "E501",
          "550"
        ]
      },
      "geometry": {
        "type": "Polygon",
        "coordinates": [
          [
            [
              -120.6598818,
              35.29891845
            ],
            [
              -120.6597437,
              35.2989825
            ],
            [
              -120.6596395,
              35.298833
            ],
            [
              -120.6596796,
              35.2988144
            ],
            [
              -120.6596737,
              35.2988059
            ],
            [
              -120.6597414,
              35.2987745
            ],
            [
              -120.6596902,
              35.298701
            ],
            [
              -120.6597304,
              35.29868235
            ],
            [
              -120.6598818,
              35.29891845
            ]
          ]
        ]
      }
    },
    {
      "type": "Feature",
      "properties": {
        "building_id": "way/42335852",
        "building_name": "Kinesiology",
        "floor": 1,
        "zone_id": "43A_right",
        "label": "Right side, 1st floor",
        "classrooms": [
          "150B",
          "154",
          "155",
          "156",
          "153",
          "250C",
          "250D",
          "259",
          "260",
          "261",
          "364",
          "365",
          "366",
          "367",
          "368",
          "369",
          "370",
          "371",
          "372",
          "373",
          "374",
          "375",
          "376",
          "377",
          "457",
          "458",
          "459",
          "458A",
          "458B",
          "458C",
          "458D",
          "458E"
        ]
      },
      "geometry": {
        "type": "Polygon",
        "coordinates": [
          [
            [
              -120.6598818,
              35.29891845
            ],
            [
              -120.6600199,
              35.2988544
            ],
            [
              -120.6598938,
              35.2986733
            ],
            [
              -120.6598058,
              35.2987141
            ],
            [
              -120.6597706,
              35.2986637
            ],
            [
              -120.6597304,
              35.29868235
            ],
            [
              -120.6598818,
              35.29891845
            ]
          ]
        ]
      }
    },
    {
      "type": "Feature",
      "properties": {
        "building_id": "way/43738057",
        "building_name": "Health and Counseling Services",
        "floor": 1,
        "zone_id": "27_right",
        "label": "Right side, 1st floor",
        "classrooms": [
          "S01",
          "C01",
          "10",
          "11",
          "12",
          "13",
          "14",
          "15",
          "16",
          "17",
          "18",
          "19",
          "20",
          "21",
          "16A",
          "S02",
          "C02",
          "10A",
          "108A",
          "108B",
          "108C",
          "108D",
          "180F",
          "180G",
          "180H",
          "180I",
          "180J",
          "180K",
          "180L",
          "180M",
          "M101",
          "181",
          "182",
          "183",
          "184",
          "185",
          "186",
          "187",
          "188",
          "189",
          "190",
          "191",
          "192",
          "193",
          "194",
          "195",
          "196",
          "S101",
          "S102",
          "191A",
          "191B",
          "C101",
          "192A",
          "192B",
          "193A",
          "193B",
          "194A",
          "194B",
          "195A",
          "195B",
          "C102",
          "C103",
          "174",
          "175",
          "176",
          "177",
          "178",
          "179",
          "177A",
          "178A",
          "178B",
          "178C",
          "178D",
          "178E",
          "178F",
          "178G",
          "179A"
        ]
      },
      "geometry": {
        "type": "Polygon",
        "coordinates": [
          [
            [
              -120.6610754,
              35.2979685
            ],
            [
              -120.6611214,
              35.2979613
            ],
            [
              -120.6611716,
              35.2979535
            ],
            [
              -120.6611859,
              35.2979821
            ],
            [
              -120.6612555,
              35.2979596
            ],
            [
              -120.661251,
              35.2979492
            ],
            [
              -120.6615353,
              35.2978585
            ],
            [
              -120.6615402,
              35.2978699
            ],
            [
              -120.6617157,
              35.2978155
            ],
            [
              -120.6617078,
              35.2977964
            ],
            [
              -120.6618838,
              35.2977411
            ],
            [
              -120.6618372,
              35.2976424
            ],
            [
              -120.6616735,
              35.2976942
            ],
            [
              -120.6616321,
              35.2976133
            ],
            [
              -120.6612059,
              35.297749
            ],
            [
              -120.6612011,
              35.2977407
            ],
            [
              -120.6610864,
              35.2977753
            ],
            [
              -120.6611069,
              35.2978194
            ],
            [
              -120.6610414,
              35.2978302
            ],
            [
              -120.6610754,
              35.2979685
            ]
          ]
        ]
      }
    },
    {
      "type": "Feature",
      "properties": {
        "building_id": "way/43738057",
        "building_name": "Health and Counseling Services",
        "floor": 1,
        "zone_id": "27_left",
        "label": "Left side, 1st floor",
        "classrooms": [
          "L101",
          "101",
          "102",
          "103",
          "104",
          "105",
          "106",
          "107",
          "108",
          "109",
          "110",
          "111",
          "112",
          "113",
          "114",
          "115",
          "116",
          "C107",
          "153",
          "154",
          "155",
          "156",
          "157",
          "158",
          "159",
          "160",
          "161",
          "162",
          "163",
          "173",
          "173A",
          "173B",
          "173C",
          "R105",
          "165",
          "C104",
          "R104",
          "R103",
          "R102",
          "R101",
          "C105",
          "129",
          "130",
          "131",
          "133",
          "120",
          "121",
          "122",
          "123",
          "125",
          "126",
          "119",
          "135",
          "136",
          "137",
          "138",
          "139",
          "140",
          "141",
          "142",
          "143",
          "144",
          "145",
          "146",
          "147",
          "148",
          "C106",
          "170",
          "171"
        ]
      },
      "geometry": {
        "type": "Polygon",
        "coordinates": [
          [
            [
              -120.6610414,
              35.2978302
            ],
            [
              -120.6610357,
              35.2978034
            ],
            [
              -120.6610158,
              35.2978059
            ],
            [
              -120.6610135,
              35.2977924
            ],
            [
              -120.6609315,
              35.2978046
            ],
            [
              -120.6609355,
              35.2978201
            ],
            [
              -120.6608021,
              35.2978382
            ],
            [
              -120.6608596,
              35.298084
            ],
            [
              -120.6608438,
              35.2980874
            ],
            [
              -120.6608707,
              35.2981932
            ],
            [
              -120.6608878,
              35.2981909
            ],
            [
              -120.6609007,
              35.2982493
            ],
            [
              -120.6610019,
              35.2982346
            ],
            [
              -120.66102,
              35.2983132
            ],
            [
              -120.6611552,
              35.2982932
            ],
            [
              -120.6610754,
              35.2979685
            ],
            [
              -120.6610414,
              35.2978302
            ]
          ]
        ]
      }
    },
    {
      "type": "Feature",
      "properties": {
        "building_id": "way/35152829",
        "building_name": "Farm Shop",
        "floor": 1,
        "zone_id": "9_left",
        "label": "Left side, 1st floor",
        "classrooms": [
          "9",
          "1",
          "2",
          "3",
          "4",
          "5",
          "6",
          "7",
          "8",
          "1A",
          "2A",
          "2B",
          "5A",
          "9C",
          "C910"
        ]
      },
      "geometry": {
        "type": "Polygon",
        "coordinates": [
          [
            [
              -120.66227631204487,
              35.30420624415721
            ],
            [
              -120.6625398,
              35.3041561
            ],
            [
              -120.6626759,
              35.3046327
            ],
            [
              -120.662475,
              35.3046709
            ],
            [
              -120.6624454,
              35.3045673
            ],
            [
              -120.6623828,
              35.3045793
            ],
            [
              -120.6623675,
              35.3045257
            ],
            [
              -120.66227631204487,
              35.30420624415721
            ]
          ]
        ]
      }
    },
    {
      "type": "Feature",
      "properties": {
        "building_id": "way/35152829",
        "building_name": "Farm Shop",
        "floor": 1,
        "zone_id": "9_right",
        "label": "Right side, 1st floor",
        "classrooms": [
          "9A",
          "9B"
        ]
      },
      "geometry": {
        "type": "Polygon",
        "coordinates": [
          [
            [
              -120.66227631204487,
              35.30420624415721
            ],
            [
              -120.6619413,
              35.30427
            ],
            [
              -120.6620325,
              35.3045894
            ],
            [
              -120.6623675,
              35.3045257
            ],
            [
              -120.66227631204487,
              35.30420624415721
            ]
          ]
        ]
      }
    },
    {
      "type": "Feature",
      "properties": {
        "building_id": "way/45600382",
        "building_name": "Aero Hanger",
        "floor": 1,
        "zone_id": "04A_right",
        "label": "Right side, 1st floor",
        "classrooms": [
          "06",
          "07",
          "08",
          "09",
          "100",
          "100C",
          "100H",
          "100F",
          "100J",
          "S101",
          "23",
          "S201"
        ]
      },
      "geometry": {
        "type": "Polygon",
        "coordinates": [
          [
            [
              -120.6648592,
              35.30570695
            ],
            [
              -120.6647461,
              35.3058122
            ],
            [
              -120.6646964,
              35.30559365
            ],
            [
              -120.6648592,
              35.30570695
            ]
          ]
        ]
      }
    },
    {
      "type": "Feature",
      "properties": {
        "building_id": "way/45600382",
        "building_name": "Aero Hanger",
        "floor": 1,
        "zone_id": "04A_left",
        "label": "Left side, 1st floor",
        "classrooms": [
          "01",
          "02",
          "03",
          "04",
          "05",
          "100A",
          "100B",
          "100D",
          "100E",
          "100I",
          "C103",
          "20",
          "21",
          "22",
          "C201",
          "24",
          "25",
          "S202",
          "25T"
        ]
      },
      "geometry": {
        "type": "Polygon",
        "coordinates": [
          [
            [
              -120.6648592,
              35.30570695
            ],
            [
              -120.6649723,
              35.3056017
            ],
            [
              -120.6646467,
              35.3053751
            ],
            [
              -120.6644248,
              35.3055899
            ],
            [
              -120.6647461,
              35.3058122
            ],
            [
              -120.6646964,
              35.30559365
            ],
            [
              -120.6648592,
              35.30570695
            ]
          ]
        ]
      }
    },
    {
      "type": "Feature",
      "properties": {
        "building_id": "way/45600385",
        "building_name": "Research Development Center",
        "floor": 1,
        "zone_id": "4_left",
        "label": "Left side, 1st floor",
        "classrooms": [
          "101",
          "101A",
          "102",
          "106A",
          "106B",
          "106C",
          "106F",
          "112",
          "113",
          "114",
          "115",
          "116",
          "116A",
          "C102",
          "C104",
          "S104",
          "114A",
          "114B",
          "201",
          "202",
          "203",
          "204",
          "205",
          "206",
          "207",
          "208",
          "209",
          "202A",
          "S203",
          "S204",
          "213"
        ]
      },
      "geometry": {
        "type": "Polygon",
        "coordinates": [
          [
            [
              -120.6650451,
              35.30526005
            ],
            [
              -120.6648875,
              35.3051498
            ],
            [
              -120.6648275,
              35.30546725
            ],
            [
              -120.6649851,
              35.3055775
            ],
            [
              -120.6650451,
              35.30526005
            ]
          ]
        ]
      }
    },
    {
      "type": "Feature",
      "properties": {
        "building_id": "way/45600385",
        "building_name": "Research Development Center",
        "floor": 1,
        "zone_id": "4_right",
        "label": "Right side, 1st floor",
        "classrooms": [
          "103",
          "104",
          "105",
          "104A",
          "104B",
          "104C",
          "S105",
          "107",
          "108",
          "109",
          "111",
          "106D",
          "106E",
          "C202",
          "210",
          "211",
          "212",
          "S205",
          "214",
          "214T"
        ]
      },
      "geometry": {
        "type": "Polygon",
        "coordinates": [
          [
            [
              -120.6650451,
              35.30526005
            ],
            [
              -120.6652027,
              35.3053703
            ],
            [
              -120.6646699,
              35.305357
            ],
            [
              -120.6648275,
              35.30546725
            ],
            [
              -120.6650451,
              35.30526005
            ]
          ]
        ]
      }
    },
    {
      "type": "Feature",
      "properties": {
        "building_id": "way/45637282",
        "building_name": "48M- EHS Pesticide Storage",
        "floor": 1,
        "zone_id": "48M_left",
        "label": "Left side, 1st floor",
        "classrooms": [
          "48M-D",
          "48M-C",
          "48M-E"
        ]
      },
      "geometry": {
        "type": "Polygon",
        "coordinates": [
          [
            [
              -120.6623288,
              35.30878905
            ],
            [
              -120.6624038,
              35.3087741
            ],
            [
              -120.6623998,
              35.3087493
            ],
            [
              -120.6624434,
              35.3087418
            ],
            [
              -120.6624204,
              35.3086501
            ],
            [
              -120.6623354,
              35.3086669
            ],
            [
              -120.6623216,
              35.3086648
            ],
            [
              -120.66230466086768,
              35.30866794764333
            ],
            [
              -120.6623288,
              35.30878905
            ]
          ]
        ]
      }
    },
    {
      "type": "Feature",
      "properties": {
        "building_id": "way/45637282",
        "building_name": "48M- EHS Pesticide Storage",
        "floor": 1,
        "zone_id": "48M_right",
        "label": "Right side, 1st floor",
        "classrooms": [
          "48M-B",
          "48M-F",
          "48M-A"
        ]
      },
      "geometry": {
        "type": "Polygon",
        "coordinates": [
          [
            [
              -120.6623288,
              35.30878905
            ],
            [
              -120.6622538,
              35.308804
            ],
            [
              -120.6622215,
              35.3086834
            ],
            [
              -120.66230466086768,
              35.30866794764333
            ],
            [
              -120.6623288,
              35.30878905
            ]
          ]
        ]
      }
    },
    {
      "type": "Feature",
      "properties": {
        "building_id": "way/45644093",
        "building_name": "Temporary Plant Conservatory",
        "floor": 1,
        "zone_id": "72_left",
        "label": "Left side, 1st floor",
        "classrooms": [
          "104",
          "105",
          "106",
          "107",
          "107A",
          "107B",
          "107C",
          "107D"
        ]
      },
      "geometry": {
        "type": "Polygon",
        "coordinates": [
          [
            [
              -120.66359555,
              35.30994095
            ],
            [
              -120.6635476,
              35.3098246
            ],
            [
              -120.6634465,
              35.3098524
            ],
            [
              -120.6634993392827,
              35.30998060022686
            ],
            [
              -120.66359555,
              35.30994095
            ]
          ]
        ]
      }
    },
    {
      "type": "Feature",
      "properties": {
        "building_id": "way/45644093",
        "building_name": "Temporary Plant Conservatory",
        "floor": 1,
        "zone_id": "72_right",
        "label": "Right side, 1st floor",
        "classrooms": [
          "101",
          "102",
          "103"
        ]
      },
      "geometry": {
        "type": "Polygon",
        "coordinates": [
          [
            [
              -120.66359555,
              35.30994095
            ],
            [
              -120.6636435,
              35.3100573
            ],
            [
              -120.6634427,
              35.3101124
            ],
            [
              -120.6634139,
              35.3100426
            ],
            [
              -120.6635136,
              35.3100152
            ],
            [
              -120.6634993392827,
              35.30998060022686
            ],
            [
              -120.66359555,
              35.30994095
            ]
          ]
        ]
      }
    },
    {
      "type": "Feature",
      "properties": {
        "building_id": "way/38899881",
        "building_name": "Engineering IV",
        "floor": 1,
        "zone_id": "192_left",
        "label": "Left side, 1st floor",
        "classrooms": [
          "100",
          "101",
          "102",
          "103",
          "104",
          "105",
          "106",
          "107",
          "108",
          "109",
          "110",
          "102A",
          "102B",
          "102C",
          "105A",
          "105B",
          "105C",
          "106A",
          "106B",
          "106C",
          "106C1",
          "106C2",
          "200B",
          "201",
          "202",
          "203",
          "204",
          "205",
          "206",
          "206A",
          "208",
          "209",
          "210",
          "211",
          "212",
          "213",
          "214",
          "215",
          "205A",
          "208A",
          "300B",
          "301",
          "302",
          "303",
          "304",
          "305",
          "306",
          "307",
          "308",
          "309",
          "310",
          "311",
          "312",
          "313",
          "314",
          "315",
          "C301"
        ]
      },
      "geometry": {
        "type": "Polygon",
        "coordinates": [
          [
            [
              -120.6649954,
              35.3026826
            ],
            [
              -120.6649476,
              35.3026508
            ],
            [
              -120.6647041,
              35.3028498
            ],
            [
              -120.6642452,
              35.3030839
            ],
            [
              -120.6642969,
              35.303166
            ],
            [
              -120.6642639,
              35.3031939
            ],
            [
              -120.6643328,
              35.3032576
            ],
            [
              -120.6642577,
              35.3033043
            ],
            [
              -120.6642884,
              35.3033317
            ],
            [
              -120.6643346,
              35.3033038
            ],
            [
              -120.664467,
              35.3034291
            ],
            [
              -120.6645809,
              35.3033067
            ],
            [
              -120.664566,
              35.3032856
            ],
            [
              -120.6650202,
              35.3029965
            ],
            [
              -120.6651123,
              35.3029402
            ],
            [
              -120.6649954,
              35.3026826
            ]
          ]
        ]
      }
    },
    {
      "type": "Feature",
      "properties": {
        "building_id": "way/38899881",
        "building_name": "Engineering IV",
        "floor": 1,
        "zone_id": "192_right",
        "label": "Right side, 1st floor",
        "classrooms": [
          "111",
          "112",
          "113",
          "114",
          "115",
          "116",
          "117",
          "118",
          "119",
          "120",
          "121",
          "122",
          "123",
          "124",
          "125",
          "126",
          "127",
          "128",
          "129",
          "130",
          "131",
          "132",
          "133",
          "134",
          "135",
          "136",
          "112A",
          "100D",
          "129A",
          "129B",
          "200",
          "216A",
          "216",
          "217",
          "218",
          "219",
          "220",
          "221",
          "222",
          "223",
          "224",
          "225",
          "226",
          "227",
          "228",
          "229",
          "230",
          "231",
          "232",
          "233",
          "234",
          "235",
          "236",
          "237",
          "238",
          "239",
          "240",
          "241",
          "242",
          "223A",
          "223B",
          "223C",
          "223D",
          "200C",
          "233A",
          "233B",
          "200D",
          "241A",
          "241B",
          "241C",
          "241D",
          "241E",
          "300",
          "316",
          "317",
          "318",
          "319",
          "320",
          "321",
          "322",
          "323",
          "324",
          "325",
          "326",
          "327",
          "328",
          "329",
          "330",
          "331",
          "332",
          "333",
          "316A",
          "319A",
          "323A",
          "300D"
        ]
      },
      "geometry": {
        "type": "Polygon",
        "coordinates": [
          [
            [
              -120.6649954,
              35.3026826
            ],
            [
              -120.6650408,
              35.3026541
            ],
            [
              -120.6649912,
              35.302484
            ],
            [
              -120.665296,
              35.3024098
            ],
            [
              -120.6654204,
              35.3028383
            ],
            [
              -120.6653186,
              35.3028632
            ],
            [
              -120.6653255,
              35.3028971
            ],
            [
              -120.6652364,
              35.3029151
            ],
            [
              -120.6651583,
              35.3029214
            ],
            [
              -120.6651123,
              35.3029402
            ],
            [
              -120.6649954,
              35.3026826
            ]
          ]
        ]
      }
    },
    {
      "type": "Feature",
      "properties": {
        "building_id": "way/38899884",
        "building_name": "Advanced Technologies Laboratory",
        "floor": 1,
        "zone_id": "07_left",
        "label": "Left side, 1st floor",
        "classrooms": [
          "04",
          "05",
          "06",
          "07",
          "08",
          "09",
          "10",
          "11",
          "12",
          "13",
          "4A",
          "4B",
          "7A",
          "7B",
          "9A",
          "10A",
          "10B",
          "10C"
        ]
      },
      "geometry": {
        "type": "Polygon",
        "coordinates": [
          [
            [
              -120.6651314,
              35.3023076
            ],
            [
              -120.6654304,
              35.3022498
            ],
            [
              -120.665404,
              35.3021605
            ],
            [
              -120.6653693,
              35.3020417
            ],
            [
              -120.6653666,
              35.3020302
            ],
            [
              -120.6652643,
              35.3020499
            ],
            [
              -120.66508816835922,
              35.3020839622734
            ],
            [
              -120.6651314,
              35.3023076
            ]
          ]
        ]
      }
    },
    {
      "type": "Feature",
      "properties": {
        "building_id": "way/38899884",
        "building_name": "Advanced Technologies Laboratory",
        "floor": 1,
        "zone_id": "07_right",
        "label": "Right side, 1st floor",
        "classrooms": [
          "01",
          "02",
          "03",
          "2A",
          "3A",
          "3B",
          "14",
          "15",
          "16",
          "17",
          "18",
          "19"
        ]
      },
      "geometry": {
        "type": "Polygon",
        "coordinates": [
          [
            [
              -120.6651314,
              35.3023076
            ],
            [
              -120.6648324,
              35.3023654
            ],
            [
              -120.664809,
              35.3022847
            ],
            [
              -120.6647671,
              35.3022928
            ],
            [
              -120.6647201,
              35.3021306
            ],
            [
              -120.6648067,
              35.3021138
            ],
            [
              -120.6648134,
              35.3021371
            ],
            [
              -120.66508816835922,
              35.3020839622734
            ],
            [
              -120.6651314,
              35.3023076
            ]
          ]
        ]
      }
    },
    {
      "type": "Feature",
      "properties": {
        "building_id": "way/38939878",
        "building_name": "Engineering South",
        "floor": 1,
        "zone_id": "40_left",
        "label": "Left side, 1st floor",
        "classrooms": [
          "C100",
          "107",
          "108",
          "109",
          "110",
          "110B",
          "111A",
          "111B",
          "112A",
          "112B",
          "113A",
          "113",
          "114",
          "115",
          "116",
          "117",
          "118",
          "119",
          "120",
          "122",
          "123",
          "124",
          "125"
        ]
      },
      "geometry": {
        "type": "Polygon",
        "coordinates": [
          [
            [
              -120.6608592,
              35.2993411
            ],
            [
              -120.6611386,
              35.2992901
            ],
            [
              -120.6611178,
              35.2992144
            ],
            [
              -120.6611293,
              35.2992123
            ],
            [
              -120.6610919,
              35.2990758
            ],
            [
              -120.6610697,
              35.2990798
            ],
            [
              -120.6610574,
              35.2990348
            ],
            [
              -120.66078865178149,
              35.2990838732515
            ],
            [
              -120.6608592,
              35.2993411
            ]
          ]
        ]
      }
    },
    {
      "type": "Feature",
      "properties": {
        "building_id": "way/38939878",
        "building_name": "Engineering South",
        "floor": 1,
        "zone_id": "40_right",
        "label": "Right side, 1st floor",
        "classrooms": [
          "103",
          "204",
          "100",
          "101",
          "102",
          "100A",
          "C200",
          "C201",
          "201",
          "202",
          "203",
          "201B",
          "202A"
        ]
      },
      "geometry": {
        "type": "Polygon",
        "coordinates": [
          [
            [
              -120.6608592,
              35.2993411
            ],
            [
              -120.66078865178149,
              35.2990838732515
            ],
            [
              -120.6605919,
              35.2991198
            ],
            [
              -120.660737,
              35.2996491
            ],
            [
              -120.6609338,
              35.2996131
            ],
            [
              -120.6608592,
              35.2993411
            ]
          ]
        ]
      }
    },
    {
      "type": "Feature",
      "properties": {
        "building_id": "way/38939881",
        "building_name": "Engineering East",
        "floor": 1,
        "zone_id": "20_left",
        "label": "Left side, 1st floor",
        "classrooms": [
          "115",
          "116",
          "117",
          "118",
          "119",
          "120",
          "121",
          "122",
          "123",
          "124",
          "125",
          "126",
          "127",
          "128",
          "129",
          "130",
          "131",
          "132",
          "133",
          "134",
          "135",
          "C101",
          "119A",
          "118A",
          "127A",
          "127B"
        ]
      },
      "geometry": {
        "type": "Polygon",
        "coordinates": [
          [
            [
              -120.6614038,
              35.3005631
            ],
            [
              -120.6617281,
              35.3009234
            ],
            [
              -120.6618371,
              35.3008626
            ],
            [
              -120.662196,
              35.3006456
            ],
            [
              -120.6621212,
              35.3005632
            ],
            [
              -120.6620464,
              35.3004808
            ],
            [
              -120.6619859,
              35.3005175
            ],
            [
              -120.6619507,
              35.300539
            ],
            [
              -120.6618953,
              35.3005728
            ],
            [
              -120.6617891,
              35.3006378
            ],
            [
              -120.6617788,
              35.3006269
            ],
            [
              -120.6617568,
              35.3006035
            ],
            [
              -120.661749,
              35.3005953
            ],
            [
              -120.6616871,
              35.3005281
            ],
            [
              -120.661791,
              35.3004646
            ],
            [
              -120.6620353,
              35.3003157
            ],
            [
              -120.661957,
              35.3002309
            ],
            [
              -120.6614038,
              35.3005631
            ]
          ]
        ]
      }
    },
    {
      "type": "Feature",
      "properties": {
        "building_id": "way/38939881",
        "building_name": "Engineering East",
        "floor": 1,
        "zone_id": "20_right",
        "label": "Right side, 1st floor",
        "classrooms": [
          "100",
          "101",
          "102",
          "103",
          "104",
          "105",
          "106",
          "107",
          "108",
          "109",
          "110",
          "111",
          "112",
          "113",
          "114",
          "101A",
          "103A",
          "106A",
          "106B",
          "106C",
          "106D",
          "107A",
          "136",
          "137",
          "138",
          "139",
          "140",
          "141",
          "142",
          "143",
          "144",
          "145",
          "146",
          "147",
          "148",
          "149",
          "150",
          "142A",
          "144A",
          "145A"
        ]
      },
      "geometry": {
        "type": "Polygon",
        "coordinates": [
          [
            [
              -120.661957,
              35.3002309
            ],
            [
              -120.6618885,
              35.3001568
            ],
            [
              -120.661551,
              35.3003661
            ],
            [
              -120.6612819,
              35.3000756
            ],
            [
              -120.6616207,
              35.299872
            ],
            [
              -120.6615315,
              35.299768
            ],
            [
              -120.6614679,
              35.2996938
            ],
            [
              -120.6610186,
              35.2999677
            ],
            [
              -120.66092,
              35.3000279
            ],
            [
              -120.6614038,
              35.3005631
            ],
            [
              -120.661957,
              35.3002309
            ]
          ]
        ]
      }
    },
    {
      "type": "Feature",
      "properties": {
        "building_id": "way/38939883",
        "building_name": "Frank E. Pilling Building",
        "floor": 1,
        "zone_id": "14_right",
        "label": "Right side, 1st floor",
        "classrooms": [
          "C102",
          "S102",
          "102",
          "103",
          "104",
          "105",
          "106",
          "107",
          "108",
          "109",
          "110",
          "111",
          "112",
          "102A",
          "102B",
          "116",
          "117",
          "118",
          "105A",
          "105B",
          "C101",
          "111A",
          "111B",
          "111C",
          "119",
          "115",
          "115A",
          "115B",
          "115C",
          "115D",
          "115E",
          "115F",
          "115G",
          "115H",
          "202",
          "203",
          "204",
          "205",
          "206",
          "207",
          "208",
          "209",
          "210",
          "211",
          "212",
          "213",
          "214",
          "215",
          "216",
          "240",
          "241",
          "242",
          "243",
          "244",
          "245",
          "246",
          "247",
          "249",
          "257",
          "241B",
          "254B",
          "C203",
          "257A"
        ]
      },
      "geometry": {
        "type": "Polygon",
        "coordinates": [
          [
            [
              -120.6623706,
              35.30013875
            ],
            [
              -120.6623166,
              35.2999622
            ],
            [
              -120.6624158,
              35.2999409
            ],
            [
              -120.6623837,
              35.2998443
            ],
            [
              -120.6624395,
              35.2998335
            ],
            [
              -120.6624285,
              35.2997925
            ],
            [
              -120.6623326,
              35.2998146
            ],
            [
              -120.6623093,
              35.2997652
            ],
            [
              -120.6617888,
              35.2998634
            ],
            [
              -120.6618015,
              35.2999117
            ],
            [
              -120.6617103,
              35.2999314
            ],
            [
              -120.6617227,
              35.2999667
            ],
            [
              -120.6617669,
              35.2999626
            ],
            [
              -120.6617923,
              35.3000555
            ],
            [
              -120.6621161,
              35.300004
            ],
            [
              -120.66215405,
              35.3001767
            ],
            [
              -120.6623706,
              35.30013875
            ]
          ]
        ]
      }
    },
    {
      "type": "Feature",
      "properties": {
        "building_id": "way/38939883",
        "building_name": "Frank E. Pilling Building",
        "floor": 1,
        "zone_id": "14_left",
        "label": "Left side, 1st floor",
        "classrooms": [
          "217",
          "218",
          "219",
          "220",
          "221",
          "222",
          "223",
          "224",
          "225",
          "226",
          "227",
          "228",
          "229",
          "230",
          "231",
          "S204",
          "233",
          "234",
          "235",
          "236",
          "C202",
          "238",
          "238A",
          "238B",
          "238C",
          "238D",
          "238E",
          "238F",
          "239",
          "S203",
          "C201",
          "232A",
          "232B",
          "235B",
          "235C",
          "235D",
          "S304",
          "S303",
          "E301",
          "C301",
          "301",
          "302",
          "303",
          "305",
          "307",
          "308",
          "309"
        ]
      },
      "geometry": {
        "type": "Polygon",
        "coordinates": [
          [
            [
              -120.66215405,
              35.3001767
            ],
            [
              -120.662192,
              35.3003494
            ],
            [
              -120.6621046,
              35.3003728
            ],
            [
              -120.6621268,
              35.3004502
            ],
            [
              -120.6621631,
              35.3004418
            ],
            [
              -120.662184,
              35.3005202
            ],
            [
              -120.6625299,
              35.3004579
            ],
            [
              -120.6625097,
              35.3003809
            ],
            [
              -120.6624903,
              35.3003021
            ],
            [
              -120.6624246,
              35.3003153
            ],
            [
              -120.6624137,
              35.3002823
            ],
            [
              -120.6624064,
              35.3002578
            ],
            [
              -120.6623166,
              35.2999622
            ],
            [
              -120.66215405,
              35.3001767
            ]
          ]
        ]
      }
    },
    {
      "type": "Feature",
      "properties": {
        "building_id": "way/45600253",
        "building_name": "Smith Alumni Center",
        "floor": 1,
        "zone_id": "28_left",
        "label": "Left side, 1st floor",
        "classrooms": [
          "4",
          "5",
          "6",
          "7",
          "8",
          "5A",
          "C102",
          "C101",
          "8A",
          "4A",
          "10",
          "11"
        ]
      },
      "geometry": {
        "type": "Polygon",
        "coordinates": [
          [
            [
              -120.66210090000001,
              35.297630999999996
            ],
            [
              -120.6621879,
              35.2977154
            ],
            [
              -120.6622779,
              35.2976535
            ],
            [
              -120.66219110595928,
              35.29756906083635
            ],
            [
              -120.66210090000001,
              35.297630999999996
            ]
          ]
        ]
      }
    },
    {
      "type": "Feature",
      "properties": {
        "building_id": "way/45600253",
        "building_name": "Smith Alumni Center",
        "floor": 1,
        "zone_id": "28_right",
        "label": "Right side, 1st floor",
        "classrooms": [
          "1",
          "2",
          "3",
          "1A",
          "2A"
        ]
      },
      "geometry": {
        "type": "Polygon",
        "coordinates": [
          [
            [
              -120.66210090000001,
              35.297630999999996
            ],
            [
              -120.6620139,
              35.2975466
            ],
            [
              -120.6620189,
              35.2975433
            ],
            [
              -120.6619779,
              35.2975032
            ],
            [
              -120.6620109,
              35.2974808
            ],
            [
              -120.6620039,
              35.2974739
            ],
            [
              -120.6620469,
              35.2974444
            ],
            [
              -120.6620849,
              35.2974814
            ],
            [
              -120.6621269,
              35.2974524
            ],
            [
              -120.6621819,
              35.2975058
            ],
            [
              -120.6621489,
              35.297528
            ],
            [
              -120.66219110595928,
              35.29756906083635
            ],
            [
              -120.66210090000001,
              35.297630999999996
            ]
          ]
        ]
      }
    }
  ]
}