{
  "type": "FeatureCollection",
  "name": "class_zones",
  "features": [
    {
      "type": "Feature",
      "properties": {
        "building_id": "way/45600403",
        "building_name": "Corporation Administration",
        "floor": 1,
        "zone_id": "15_left",
        "label": "Left side, 1st floor",
        "room_min": 210,
        "room_max": 240
      },
      "geometry": {
        "type": "Polygon",
        "coordinates": [
          [
            [
               -120.6601449,
               35.3033324
            ],
            [
               -120.6606550, 
               35.3032988
            ],
            [
               -120.6606505, 
               35.3032125
            ],
            [
               -120.6603867, 
               35.3032303
            ],
            [
               -120.6603670, 
               35.3031634
            ],
            [
               -120.6601117, 
               35.30317625
            ],
            [
               -120.6601240, 
               35.3033051
            ],
            [
               -120.6601426, 
               35.3033034
            ],
            [
               -120.6601449, 
               35.3033324
            ]
          ]
         ]
      }
    },
    {
      "type": "Feature",
      "properties": {
        "building_id": "way/45600403",
        "building_name": "Corporation Administration",
        "floor": 1,
        "zone_id": "15_right",
        "label": "Right side, 1st floor",
        "room_min": 241,
        "room_max": 270
      },
      "geometry": {
        "type": "Polygon",
        "coordinates": [
          [
            [
               -120.6603670, 
               35.3031634
            ],
            [
               -120.6603473, 
               35.3030965
            ],
            [
               -120.6605614, 
               35.3030553
            ],
            [
               -120.6605343, 
               35.3029579
            ],
            [
               -120.6604532, 
               35.3029742
            ],
            [
               -120.6604561, 
               35.3029884
            ],
            [
               -120.6602251, 
               35.3030330
            ],
            [
               -120.6602071, 
               35.3030337
            ],
            [
               -120.6602052, 
               35.3029933
            ],
            [
               -120.6601525, 
               35.3029945
            ],
            [
               -120.6601535, 
               35.3030242
            ],
            [
               -120.6601138, 
               35.3030254
            ],
            [
               -120.6601150, 
               35.3030468
            ],
            [
               -120.6600994, 
               35.3030474
            ],
            [
               -120.6601117, 
               35.30317625
            ],
            [
               -120.6603670, 
               35.3031634
            ]
          ]
        ]
      }
    }
  ]
}