{
    "type": "FeatureCollection",
    "name": "campus_amenities",
    "features": [
      {
        "type": "Feature",
        "properties": {
          "id": "toilet_001",
          "category": "toilet",
          "name": "Floor 2 Bathroom",
          "building": "William and Linda Frost Center for Research and Innovation (181)",
          "level": 2,
          "notes": "Replace this example with a real location"
        },
        "geometry": {
          "type": "Point",
          "coordinates": [-120.660710, 35.301980]
        }
      },
      {
        "type": "Feature",
        "properties": {
          "id": "toilet_002",
          "category": "toilet",
          "name": "Floor 3 Bathroom",
          "building": "William and Linda Frost Center for Research and Innovation (181)",
          "level": 3,
          "notes": "Replace this example with a real location"
        },
        "geometry": {
          "type": "Point",
          "coordinates": [-120.660700, 35.301980]
        }
      },
      {
        "type": "Feature",
        "properties": {
          "id": "toilet_003",
          "category": "toilet",
          "name": "Floor 4 Bathroom",
          "building": "William and Linda Frost Center for Research and Innovation (181)",
          "level": 4,
          "notes": "Replace this example with a real location"
        },
        "geometry": {
          "type": "Point",
          "coordinates": [-120.660690, 35.301980]
        }
      },
      {
        "type": "Feature",
        "properties": {
          "id": "water_fountain_001",
          "category": "water_fountain",
          "name": "Floor 2 Water Fountain",
          "building": "William and Linda Frost Center for Research and Innovation (181)",
          "level": 2,
          "notes": "Replace this example with a real location"
        },
        "geometry": {
          "type": "Point",
          "coordinates": [-120.660750, 35.301962]
        }
      },
      {
        "type": "Feature",
        "properties": {
          "id": "water_fountain_002",
          "category": "water_fountain",
          "name": "Floor 3 Water Fountain",
          "building": "William and Linda Frost Center for Research and Innovation (181)",
          "level": 4,
          "notes": "Replace this example with a real location"
        },
        "geometry": {
          "type": "Point",
          "coordinates": [-120.660740, 35.301962]
        }
      },
      {
        "type": "Feature",
        "properties": {
          "id": "water_fountain_003",
          "category": "water_fountain",
          "name": "Floor 4 Water Fountain",
          "building": "William and Linda Frost Center for Research and Innovation (181)",
          "level": 4,
          "notes": "Replace this example with a real location"
        },
        "geometry": {
          "type": "Point",
          "coordinates": [-120.660760, 35.301962]
        }
      },
      {
        "type": "Feature",
        "properties": {
          "id": "cafe_001",
          "category": "cafe",
          "name": "Julians Cafe - Kennedy Library",
          "building": "Robert E. Kennedy Library",
          "level": 1,
          "notes": "Replace this example with a real location"
        },
        "geometry": {
          "type": "Point",
          "coordinates": [-120.663530, 35.302140]
        }
      },
      {
        "type": "Feature",
        "properties": {
          "id": "toilet_004",
          "category": "toilet",
          "name": "Floor 1 Bathroom (1)",
          "building": "Robert E. Kennedy Library",
          "level": 1,
          "notes": "Replace this example with a real location"
        },
        "geometry": {
          "type": "Point",
          "coordinates": [-120.663561, 35.301957]
        }
      },
      {
        "type": "Feature",
        "properties": {
          "id": "water_fountain_004",
          "category": "water_fountain",
          "name": "Floor 1 Water Fountain (1)",
          "building": "Robert E. Kennedy Library",
          "level": 1,
          "notes": "Replace this example with a real location"
        },
        "geometry": {
          "type": "Point",
          "coordinates": [-120.663531, 35.301957]
        }
      },
      {
        "type": "Feature",
        "properties": {
          "id": "printer_001",
          "category": "printer",
          "name": "Floor 1 Printer",
          "building": "Robert E. Kennedy Library",
          "level": 1,
          "notes": "Replace this example with a real location"
        },
        "geometry": {
          "type": "Point",
          "coordinates": [-120.664194, 35.301961]
        }
      },
      {
        "type": "Feature",
        "properties": {
          "id": "toilet_005",
          "category": "toilet",
          "name": "Floor 1 Bathroom (2)",
          "building": "Robert E. Kennedy Library",
          "level": 1,
          "notes": "Replace this example with a real location"
        },
        "geometry": {
          "type": "Point",
          "coordinates": [-120.664173, 35.301750]
        }
      },
      {
        "type": "Feature",
        "properties": {
          "id": "water_fountain_005",
          "category": "water_fountain",
          "name": "Floor 1 Water Fountain (2)",
          "building": "Robert E. Kennedy Library",
          "level": 1,
          "notes": "Replace this example with a real location"
        },
        "geometry": {
          "type": "Point",
          "coordinates": [-120.664140, 35.301750]
        }
      },
      {
        "type": "Feature",
        "properties": {
          "id": "toilet_006",
          "category": "toilet",
          "name": "Floor 5 Toilet (1)",
          "building": "Robert E. Kennedy Library",
          "level": 5,
          "notes": "Replace this example with a real location"
        },
        "geometry": {
          "type": "Point",
          "coordinates": [-120.664180, 35.301714]
        }
      },
      {
        "type": "Feature",
        "properties": {
          "id": "water_fountain_006",
          "category": "water_fountain",
          "name": "Floor 5 Water Fountain (1)",
          "building": "Robert E. Kennedy Library",
          "level": 5,
          "notes": "Replace this example with a real location"
        },
        "geometry": {
          "type": "Point",
          "coordinates": [-120.664150, 35.301714]
        }
      },
      {
        "type": "Feature",
        "properties": {
          "id": "water_fountain_007",
          "category": "water_fountain",
          "name": "Floor 5 Water Fountain (2)",
          "building": "Robert E. Kennedy Library",
          "level": 5,
          "notes": "Replace this example with a real location"
        },
        "geometry": {
          "type": "Point",
          "coordinates": [-120.663550, 35.301990]
        }
      },
      {
        "type": "Feature",
        "properties": {
          "id": "toilet_007",
          "category": "toilet",
          "name": "Floor 5 Toilet (2)",
          "building": "Robert E. Kennedy Library",
          "level": 5,
          "notes": "Replace this example with a real location"
        },
        "geometry": {
          "type": "Point",
          "coordinates": [-120.663505, 35.302069]
        }
      },
      {
        "type": "Feature",
        "properties": {
          "id": "elevator_001",
          "category": "elevator",
          "name": "Kennedy Library Elevator (Test)",
          "building": "Robert E. Kennedy Library",
          "level": 1,
          "notes": "Temporary test elevator marker near west side of library footprint"
        },
        "geometry": {
          "type": "Point",
          "coordinates": [-120.664380, 35.301875]
        }
      },
      {
        "type": "Feature",
        "properties": {
          "id": "printer_001",
          "category": "printer",
          "name": "Example Printer",
          "building": "Library",
          "level": 2,
          "notes": "Replace this example with a real location"
        },
        "geometry": {
          "type": "Point",
          "coordinates": [-120.000000, 35.000000]
        }
      }
    ]
  }
  
