{
  "type": "FeatureCollection",
  "generator": "overpass-turbo",
  "copyright": "The data included in this document is from www.openstreetmap.org. The data is made available under ODbL.",
  "timestamp": "2026-02-03T05:17:57Z",
  "features": [
    {
      "type": "Feature",
      "properties": {
        "@id": "way/31560773",
        "addr:city": "San Luis Obispo",
        "addr:postcode": "93407",
        "addr:street": "Grand",
        "building": "university",
        "name": "Old Power House",
        "ref": "76"
      },
      "geometry": {
        "type": "Polygon",
        "coordinates": [
          [
            [
              -120.6636243,
              35.2989329
            ],
            [
              -120.6634791,
              35.2989607
            ],
            [
              -120.6635035,
              35.2990455
            ],
            [
              -120.6633761,
              35.2990699
            ],
            [
              -120.6634011,
              35.2991568
            ],
            [
              -120.6635199,
              35.299134
            ],
            [
              -120.6635323,
              35.2991771
            ],
            [
              -120.6636861,
              35.2991476
            ],
            [
              -120.6636243,
              35.2989329
            ]
          ]
        ]
      },
      "id": "way/31560773"
    },
    {
      "type": "Feature",
      "properties": {
        "@id": "way/43738023",
        "addr:city": "San Luis Obispo",
        "addr:postcode": "93407",
        "addr:street": "Grand",
        "building": "university",
        "name": "Orfalea Family and ASI Children's Center",
        "ref": "133"
      },
      "geometry": {
        "type": "Polygon",
        "coordinates": [
          [
            [
              -120.662943,
              35.297194
            ],
            [
              -120.6625259,
              35.2973281
            ],
            [
              -120.6625316,
              35.2973401
            ],
            [
              -120.6624967,
              35.2973513
            ],
            [
              -120.6625199,
              35.2973994
            ],
            [
              -120.6625362,
              35.2973941
            ],
            [
              -120.6625595,
              35.2974425
            ],
            [
              -120.6625098,
              35.2974585
            ],
            [
              -120.6625239,
              35.2974879
            ],
            [
              -120.6625091,
              35.2974926
            ],
            [
              -120.662529,
              35.297534
            ],
            [
              -120.6625447,
              35.2975289
            ],
            [
              -120.6625523,
              35.2975447
            ],
            [
              -120.6626464,
              35.2975145
            ],
            [
              -120.6626515,
              35.2975251
            ],
            [
              -120.6627844,
              35.2974824
            ],
            [
              -120.6627796,
              35.2974723
            ],
            [
              -120.6628703,
              35.2974432
            ],
            [
              -120.6628751,
              35.2974533
            ],
            [
              -120.6629693,
              35.297423
            ],
            [
              -120.6629641,
              35.2974121
            ],
            [
              -120.6630739,
              35.2973768
            ],
            [
              -120.6630314,
              35.2972887
            ],
            [
              -120.6629944,
              35.2973006
            ],
            [
              -120.662943,
              35.297194
            ]
          ]
        ]
      },
      "id": "way/43738023"
    },
    {
      "type": "Feature",
      "properties": {
        "@id": "way/43738040",
        "addr:city": "San Luis Obispo",
        "addr:postcode": "93407",
        "addr:state": "CA",
        "addr:street": "Grand",
        "building": "university",
        "building:levels": "2",
        "ele": "86",
        "gnis:feature_id": "1872458",
        "name": "Chase Hall",
        "ref": "115",
        "source": "USGS Geonames"
      },
      "geometry": {
        "type": "Polygon",
        "coordinates": [
          [
            [
              -120.663759,
              35.2977557
            ],
            [
              -120.6637169,
              35.2977628
            ],
            [
              -120.6637109,
              35.2977379
            ],
            [
              -120.6636459,
              35.2977488
            ],
            [
              -120.6637329,
              35.2980977
            ],
            [
              -120.6638409,
              35.2980798
            ],
            [
              -120.663759,
              35.2977557
            ]
          ]
        ]
      },
      "id": "way/43738040"
    },
    {
      "type": "Feature",
      "properties": {
        "@id": "way/45599729",
        "addr:city": "San Luis Obispo",
        "addr:postcode": "93407",
        "addr:street": "Grand",
        "building": "university",
        "name": "Jespersen Hall",
        "ref": "116"
      },
      "geometry": {
        "type": "Polygon",
        "coordinates": [
          [
            [
              -120.6645603,
              35.297913
            ],
            [
              -120.6645579,
              35.2979052
            ],
            [
              -120.6644767,
              35.2975963
            ],
            [
              -120.6643662,
              35.2976137
            ],
            [
              -120.6644531,
              35.2979294
            ],
            [
              -120.6645472,
              35.297915
            ],
            [
              -120.6645603,
              35.297913
            ]
          ]
        ]
      },
      "id": "way/45599729"
    },
    {
      "type": "Feature",
      "properties": {
        "@id": "way/45599746",
        "addr:city": "San Luis Obispo",
        "addr:postcode": "93407",
        "addr:street": "Grand",
        "building": "university",
        "name": "Heron Hall",
        "ref": "117"
      },
      "geometry": {
        "type": "Polygon",
        "coordinates": [
          [
            [
              -120.66442,
              35.2973954
            ],
            [
              -120.6643293,
              35.2970728
            ],
            [
              -120.6642269,
              35.2970945
            ],
            [
              -120.6643199,
              35.2974134
            ],
            [
              -120.66442,
              35.2973954
            ]
          ]
        ]
      },
      "id": "way/45599746"
    },
    {
      "type": "Feature",
      "properties": {
        "@id": "way/45599752",
        "addr:city": "San Luis Obispo",
        "addr:postcode": "93407",
        "addr:street": "Grand",
        "building": "university",
        "building:levels": "2",
        "name": "Student Services",
        "ref": "124"
      },
      "geometry": {
        "type": "Polygon",
        "coordinates": [
          [
            [
              -120.6637822,
              35.2987116
            ],
            [
              -120.663787,
              35.29873
            ],
            [
              -120.6640604,
              35.298682
            ],
            [
              -120.6640658,
              35.2987025
            ],
            [
              -120.6641981,
              35.2986793
            ],
            [
              -120.6641909,
              35.2986519
            ],
            [
              -120.6641664,
              35.2985587
            ],
            [
              -120.6641487,
              35.2985618
            ],
            [
              -120.6640814,
              35.2983063
            ],
            [
              -120.6640722,
              35.2983079
            ],
            [
              -120.6640608,
              35.2982648
            ],
            [
              -120.6640167,
              35.2982725
            ],
            [
              -120.6640194,
              35.2982831
            ],
            [
              -120.6639899,
              35.2982883
            ],
            [
              -120.6639426,
              35.2982965
            ],
            [
              -120.6640024,
              35.2985233
            ],
            [
              -120.664029,
              35.2985186
            ],
            [
              -120.6640404,
              35.2985621
            ],
            [
              -120.6640074,
              35.2985679
            ],
            [
              -120.6639669,
              35.298575
            ],
            [
              -120.6639652,
              35.2985686
            ],
            [
              -120.6637299,
              35.2986099
            ],
            [
              -120.6637431,
              35.29866
            ],
            [
              -120.6637161,
              35.2986647
            ],
            [
              -120.6637308,
              35.2987206
            ],
            [
              -120.6637822,
              35.2987116
            ]
          ]
        ]
      },
      "id": "way/45599752"
    },
    {
      "type": "Feature",
      "properties": {
        "@id": "way/45637320",
        "addr:city": "San Luis Obispo",
        "addr:postcode": "93407",
        "addr:street": "Grand",
        "building": "stadium",
        "name": "Cal Poly Athletic Ticket Office (61)"
      },
      "geometry": {
        "type": "Polygon",
        "coordinates": [
          [
            [
              -120.6647988,
              35.2988684
            ],
            [
              -120.6645707,
              35.2981549
            ],
            [
              -120.664308,
              35.2982172
            ],
            [
              -120.6645377,
              35.2989255
            ],
            [
              -120.6647988,
              35.2988684
            ]
          ]
        ]
      },
      "id": "way/45637320"
    },
    {
      "type": "Feature",
      "properties": {
        "@id": "way/45644100",
        "addr:city": "San Luis Obispo",
        "addr:postcode": "93407",
        "addr:street": "Grand",
        "building": "university",
        "min_level": "-1",
        "name": "Construction Innovations Center",
        "ref": "186"
      },
      "geometry": {
        "type": "Polygon",
        "coordinates": [
          [
            [
              -120.6622743,
              35.2991484
            ],
            [
              -120.6623494,
              35.2994174
            ],
            [
              -120.6630228,
              35.2992913
            ],
            [
              -120.6630653,
              35.2994233
            ],
            [
              -120.6630842,
              35.2994188
            ],
            [
              -120.6631001,
              35.2994156
            ],
            [
              -120.6633277,
              35.2993724
            ],
            [
              -120.6633271,
              35.2993517
            ],
            [
              -120.6633731,
              35.2993425
            ],
            [
              -120.6633623,
              35.2992964
            ],
            [
              -120.6633274,
              35.2991588
            ],
            [
              -120.6631453,
              35.2991904
            ],
            [
              -120.6631521,
              35.2992204
            ],
            [
              -120.6630021,
              35.299247
            ],
            [
              -120.6629684,
              35.2991251
            ],
            [
              -120.662492,
              35.2992125
            ],
            [
              -120.6624884,
              35.2992017
            ],
            [
              -120.6624107,
              35.2992179
            ],
            [
              -120.6623832,
              35.2991278
            ],
            [
              -120.6622743,
              35.2991484
            ]
          ]
        ]
      },
      "id": "way/45644100"
    },
    {
      "type": "Feature",
      "properties": {
        "@id": "way/205411389",
        "addr:city": "San Luis Obispo",
        "addr:postcode": "93407",
        "addr:street": "Grand",
        "building": "university",
        "name": "Natatorium Faculty Office",
        "ref": "46T"
      },
      "geometry": {
        "type": "Polygon",
        "coordinates": [
          [
            [
              -120.6643963,
              35.2993331
            ],
            [
              -120.6643289,
              35.2990971
            ],
            [
              -120.6642852,
              35.2991055
            ],
            [
              -120.6642115,
              35.2988477
            ],
            [
              -120.6640269,
              35.2988828
            ],
            [
              -120.6640991,
              35.2991356
            ],
            [
              -120.6639214,
              35.2991694
            ],
            [
              -120.6639801,
              35.2993747
            ],
            [
              -120.6640631,
              35.2993589
            ],
            [
              -120.6640684,
              35.2993833
            ],
            [
              -120.6642226,
              35.2993576
            ],
            [
              -120.6642247,
              35.2993671
            ],
            [
              -120.6643963,
              35.2993331
            ]
          ]
        ]
      },
      "id": "way/205411389"
    },
    {
      "type": "Feature",
      "properties": {
        "@id": "way/205411394",
        "building": "university"
      },
      "geometry": {
        "type": "Polygon",
        "coordinates": [
          [
            [
              -120.663995,
              35.2988933
            ],
            [
              -120.6638015,
              35.2989302
            ],
            [
              -120.6638315,
              35.299035
            ],
            [
              -120.6640249,
              35.2989982
            ],
            [
              -120.663995,
              35.2988933
            ]
          ]
        ]
      },
      "id": "way/205411394"
    },
    {
      "type": "Feature",
      "properties": {
        "@id": "way/205411407",
        "building": "yes",
        "name": "61E- Spanos Stadium Concession"
      },
      "geometry": {
        "type": "Polygon",
        "coordinates": [
          [
            [
              -120.6654935,
              35.2989687
            ],
            [
              -120.6654205,
              35.2989826
            ],
            [
              -120.6654318,
              35.2990219
            ],
            [
              -120.6655047,
              35.299008
            ],
            [
              -120.6654935,
              35.2989687
            ]
          ]
        ]
      },
      "id": "way/205411407"
    },
    {
      "type": "Feature",
      "properties": {
        "@id": "way/617546664",
        "building": "yes"
      },
      "geometry": {
        "type": "Polygon",
        "coordinates": [
          [
            [
              -120.6646636,
              35.2979565
            ],
            [
              -120.6651055,
              35.2978587
            ],
            [
              -120.6650729,
              35.2977606
            ],
            [
              -120.6650077,
              35.297775
            ],
            [
              -120.6649999,
              35.2977515
            ],
            [
              -120.6646799,
              35.2978224
            ],
            [
              -120.6646875,
              35.2978452
            ],
            [
              -120.6646307,
              35.2978577
            ],
            [
              -120.6646636,
              35.2979565
            ]
          ]
        ]
      },
      "id": "way/617546664"
    },
    {
      "type": "Feature",
      "properties": {
        "@id": "way/617546665",
        "building": "stadium",
        "name": "61D- Spanos Stadium West Bleachers",
        "wheelchair": "yes"
      },
      "geometry": {
        "type": "Polygon",
        "coordinates": [
          [
            [
              -120.6655708,
              35.298837
            ],
            [
              -120.665675,
              35.2988161
            ],
            [
              -120.6657211,
              35.2988069
            ],
            [
              -120.665407,
              35.2978363
            ],
            [
              -120.6653684,
              35.2978445
            ],
            [
              -120.6652632,
              35.2978668
            ],
            [
              -120.6655708,
              35.298837
            ]
          ]
        ]
      },
      "id": "way/617546665"
    },
    {
      "type": "Feature",
      "properties": {
        "@id": "node/8925823392",
        "amenity": "bicycle_parking"
      },
      "geometry": {
        "type": "Point",
        "coordinates": [
          -120.6640045,
          35.2988703
        ]
      },
      "id": "node/8925823392"
    },
    {
      "type": "Feature",
      "properties": {
        "@id": "node/9661208004",
        "amenity": "post_box",
        "brand": "UPS",
        "brand:wikidata": "Q155026",
        "covered": "no",
        "drive_through": "no",
        "indoor": "no",
        "official_name": "United Parcel Service",
        "operator": "UPS",
        "operator:type": "private",
        "operator:wikidata": "Q155026",
        "operator:wikipedia": "en:United Parcel Service"
      },
      "geometry": {
        "type": "Point",
        "coordinates": [
          -120.663502,
          35.2988066
        ]
      },
      "id": "node/9661208004"
    },
    {
      "type": "Feature",
      "properties": {
        "@id": "node/9662164656",
        "amenity": "bench",
        "backrest": "no"
      },
      "geometry": {
        "type": "Point",
        "coordinates": [
          -120.6644741,
          35.2980291
        ]
      },
      "id": "node/9662164656"
    }
  ]
}