{
  "type": "FeatureCollection",
  "generator": "overpass-turbo",
  "copyright": "The data included in this document is from www.openstreetmap.org. The data is made available under ODbL.",
  "timestamp": "2026-02-03T05:19:00Z",
  "features": [
    {
      "type": "Feature",
      "properties": {
        "@id": "way/42335852",
        "addr:city": "San Luis Obispo",
        "addr:postcode": "93407",
        "addr:street": "Grand",
        "building": "university",
        "name": "Kinesiology",
        "ref": "43A"
      },
      "geometry": {
        "type": "Polygon",
        "coordinates": [
          [
            [
              -120.6600199,
              35.2988544
            ],
            [
              -120.6598938,
              35.2986733
            ],
            [
              -120.6598058,
              35.2987141
            ],
            [
              -120.6597706,
              35.2986637
            ],
            [
              -120.6596902,
              35.298701
            ],
            [
              -120.6597414,
              35.2987745
            ],
            [
              -120.6596737,
              35.2988059
            ],
            [
              -120.6596796,
              35.2988144
            ],
            [
              -120.6596395,
              35.298833
            ],
            [
              -120.6597437,
              35.2989825
            ],
            [
              -120.6600199,
              35.2988544
            ]
          ]
        ]
      },
      "id": "way/42335852"
    },
    {
      "type": "Feature",
      "properties": {
        "@id": "way/43738057",
        "addr:city": "San Luis Obispo",
        "addr:postcode": "93407",
        "addr:street": "Grand",
        "building": "university",
        "name": "Health and Counseling Services",
        "ref": "27"
      },
      "geometry": {
        "type": "Polygon",
        "coordinates": [
          [
            [
              -120.6608021,
              35.2978382
            ],
            [
              -120.6608596,
              35.298084
            ],
            [
              -120.6608438,
              35.2980874
            ],
            [
              -120.6608707,
              35.2981932
            ],
            [
              -120.6608878,
              35.2981909
            ],
            [
              -120.6609007,
              35.2982493
            ],
            [
              -120.6610019,
              35.2982346
            ],
            [
              -120.66102,
              35.2983132
            ],
            [
              -120.6611552,
              35.2982932
            ],
            [
              -120.6610754,
              35.2979685
            ],
            [
              -120.6611214,
              35.2979613
            ],
            [
              -120.6611716,
              35.2979535
            ],
            [
              -120.6611859,
              35.2979821
            ],
            [
              -120.6612555,
              35.2979596
            ],
            [
              -120.661251,
              35.2979492
            ],
            [
              -120.6615353,
              35.2978585
            ],
            [
              -120.6615402,
              35.2978699
            ],
            [
              -120.6617157,
              35.2978155
            ],
            [
              -120.6617078,
              35.2977964
            ],
            [
              -120.6618838,
              35.2977411
            ],
            [
              -120.6618372,
              35.2976424
            ],
            [
              -120.6616735,
              35.2976942
            ],
            [
              -120.6616321,
              35.2976133
            ],
            [
              -120.6612059,
              35.297749
            ],
            [
              -120.6612011,
              35.2977407
            ],
            [
              -120.6610864,
              35.2977753
            ],
            [
              -120.6611069,
              35.2978194
            ],
            [
              -120.6610414,
              35.2978302
            ],
            [
              -120.6610357,
              35.2978034
            ],
            [
              -120.6610158,
              35.2978059
            ],
            [
              -120.6610135,
              35.2977924
            ],
            [
              -120.6609315,
              35.2978046
            ],
            [
              -120.6609355,
              35.2978201
            ],
            [
              -120.6608021,
              35.2978382
            ]
          ]
        ]
      },
      "id": "way/43738057"
    },
    {
      "type": "Feature",
      "properties": {
        "@id": "way/45600281",
        "building": "yes"
      },
      "geometry": {
        "type": "Polygon",
        "coordinates": [
          [
            [
              -120.6602454,
              35.2979539
            ],
            [
              -120.6602121,
              35.2978321
            ],
            [
              -120.6602168,
              35.2978259
            ],
            [
              -120.6602055,
              35.2977814
            ],
            [
              -120.6601331,
              35.2977287
            ],
            [
              -120.6600904,
              35.2977355
            ],
            [
              -120.6601585,
              35.29797
            ],
            [
              -120.6602454,
              35.2979539
            ]
          ]
        ]
      },
      "id": "way/45600281"
    },
    {
      "type": "Feature",
      "properties": {
        "@id": "way/206420904",
        "addr:city": "San Luis Obispo",
        "addr:postcode": "93407",
        "addr:street": "Grand",
        "building": "university",
        "name": "Recreation Center",
        "ref": "43"
      },
      "geometry": {
        "type": "Polygon",
        "coordinates": [
          [
            [
              -120.6593072,
              35.2980865
            ],
            [
              -120.6591774,
              35.2979044
            ],
            [
              -120.659349,
              35.2978238
            ],
            [
              -120.6593737,
              35.2978573
            ],
            [
              -120.6594433,
              35.2978253
            ],
            [
              -120.6594538,
              35.2978402
            ],
            [
              -120.659545,
              35.2978233
            ],
            [
              -120.6592986,
              35.2974688
            ],
            [
              -120.6588723,
              35.2976691
            ],
            [
              -120.6589347,
              35.2977576
            ],
            [
              -120.6588646,
              35.2977906
            ],
            [
              -120.6591314,
              35.2981694
            ],
            [
              -120.6590901,
              35.2981889
            ],
            [
              -120.6594978,
              35.2987751
            ],
            [
              -120.6596279,
              35.2987501
            ],
            [
              -120.6596124,
              35.2986992
            ],
            [
              -120.6598063,
              35.2986097
            ],
            [
              -120.6598398,
              35.2986597
            ],
            [
              -120.6599598,
              35.2986029
            ],
            [
              -120.6599283,
              35.2985571
            ],
            [
              -120.6599776,
              35.2985332
            ],
            [
              -120.6601885,
              35.2988338
            ],
            [
              -120.660221,
              35.2988631
            ],
            [
              -120.6602855,
              35.2988816
            ],
            [
              -120.6604888,
              35.2988448
            ],
            [
              -120.6604663,
              35.2987569
            ],
            [
              -120.6605167,
              35.2987462
            ],
            [
              -120.6605215,
              35.2987575
            ],
            [
              -120.6605699,
              35.2987488
            ],
            [
              -120.6605667,
              35.2987379
            ],
            [
              -120.660705,
              35.2987114
            ],
            [
              -120.6605795,
              35.2982572
            ],
            [
              -120.6606647,
              35.2982398
            ],
            [
              -120.6606103,
              35.2980465
            ],
            [
              -120.6605246,
              35.2980612
            ],
            [
              -120.6605236,
              35.2980551
            ],
            [
              -120.6603846,
              35.2980799
            ],
            [
              -120.6603814,
              35.2980668
            ],
            [
              -120.6602838,
              35.2980849
            ],
            [
              -120.6602866,
              35.2980974
            ],
            [
              -120.6601514,
              35.2981239
            ],
            [
              -120.6601423,
              35.298087
            ],
            [
              -120.6595646,
              35.2981945
            ],
            [
              -120.6594448,
              35.2980215
            ],
            [
              -120.6593072,
              35.2980865
            ]
          ]
        ]
      },
      "id": "way/206420904"
    },
    {
      "type": "Feature",
      "properties": {
        "@id": "node/10205351968",
        "amenity": "bench",
        "backrest": "yes",
        "material": "concrete"
      },
      "geometry": {
        "type": "Point",
        "coordinates": [
          -120.6607684,
          35.2985369
        ]
      },
      "id": "node/10205351968"
    },
    {
      "type": "Feature",
      "properties": {
        "@id": "node/10205351969",
        "amenity": "bench",
        "backrest": "yes",
        "material": "concrete"
      },
      "geometry": {
        "type": "Point",
        "coordinates": [
          -120.660806,
          35.2985146
        ]
      },
      "id": "node/10205351969"
    },
    {
      "type": "Feature",
      "properties": {
        "@id": "node/10205351970",
        "amenity": "bench",
        "backrest": "yes",
        "material": "concrete"
      },
      "geometry": {
        "type": "Point",
        "coordinates": [
          -120.6608537,
          35.2985146
        ]
      },
      "id": "node/10205351970"
    },
    {
      "type": "Feature",
      "properties": {
        "@id": "node/10205351971",
        "amenity": "bench",
        "backrest": "yes",
        "material": "metal"
      },
      "geometry": {
        "type": "Point",
        "coordinates": [
          -120.6608942,
          35.2986848
        ]
      },
      "id": "node/10205351971"
    },
    {
      "type": "Feature",
      "properties": {
        "@id": "node/10205351972",
        "amenity": "bench",
        "backrest": "yes",
        "material": "metal"
      },
      "geometry": {
        "type": "Point",
        "coordinates": [
          -120.660887,
          35.2987256
        ]
      },
      "id": "node/10205351972"
    },
    {
      "type": "Feature",
      "properties": {
        "@id": "node/10205351973",
        "amenity": "bench",
        "backrest": "yes",
        "material": "metal"
      },
      "geometry": {
        "type": "Point",
        "coordinates": [
          -120.6608584,
          35.2987509
        ]
      },
      "id": "node/10205351973"
    },
    {
      "type": "Feature",
      "properties": {
        "@id": "node/10205351974",
        "amenity": "bench",
        "backrest": "yes",
        "material": "metal"
      },
      "geometry": {
        "type": "Point",
        "coordinates": [
          -120.6607822,
          35.298749
        ]
      },
      "id": "node/10205351974"
    }
  ]
}