{
  "type": "FeatureCollection",
  "generator": "overpass-turbo",
  "copyright": "The data included in this document is from www.openstreetmap.org. The data is made available under ODbL.",
  "timestamp": "2026-02-03T05:34:09Z",
  "features": [
    {
      "type": "Feature",
      "properties": {
        "@id": "way/43738057",
        "addr:city": "San Luis Obispo",
        "addr:postcode": "93407",
        "addr:street": "Grand",
        "building": "university",
        "name": "Health and Counseling Services",
        "ref": "27"
      },
      "geometry": {
        "type": "Polygon",
        "coordinates": [
          [
            [
              -120.6608021,
              35.2978382
            ],
            [
              -120.6608596,
              35.298084
            ],
            [
              -120.6608438,
              35.2980874
            ],
            [
              -120.6608707,
              35.2981932
            ],
            [
              -120.6608878,
              35.2981909
            ],
            [
              -120.6609007,
              35.2982493
            ],
            [
              -120.6610019,
              35.2982346
            ],
            [
              -120.66102,
              35.2983132
            ],
            [
              -120.6611552,
              35.2982932
            ],
            [
              -120.6610754,
              35.2979685
            ],
            [
              -120.6611214,
              35.2979613
            ],
            [
              -120.6611716,
              35.2979535
            ],
            [
              -120.6611859,
              35.2979821
            ],
            [
              -120.6612555,
              35.2979596
            ],
            [
              -120.661251,
              35.2979492
            ],
            [
              -120.6615353,
              35.2978585
            ],
            [
              -120.6615402,
              35.2978699
            ],
            [
              -120.6617157,
              35.2978155
            ],
            [
              -120.6617078,
              35.2977964
            ],
            [
              -120.6618838,
              35.2977411
            ],
            [
              -120.6618372,
              35.2976424
            ],
            [
              -120.6616735,
              35.2976942
            ],
            [
              -120.6616321,
              35.2976133
            ],
            [
              -120.6612059,
              35.297749
            ],
            [
              -120.6612011,
              35.2977407
            ],
            [
              -120.6610864,
              35.2977753
            ],
            [
              -120.6611069,
              35.2978194
            ],
            [
              -120.6610414,
              35.2978302
            ],
            [
              -120.6610357,
              35.2978034
            ],
            [
              -120.6610158,
              35.2978059
            ],
            [
              -120.6610135,
              35.2977924
            ],
            [
              -120.6609315,
              35.2978046
            ],
            [
              -120.6609355,
              35.2978201
            ],
            [
              -120.6608021,
              35.2978382
            ]
          ]
        ]
      },
      "id": "way/43738057"
    },
    {
      "type": "Feature",
      "properties": {
        "@id": "way/45600253",
        "addr:city": "San Luis Obispo",
        "addr:postcode": "93407",
        "addr:street": "Grand",
        "building": "yes",
        "name": "Smith Alumni Center",
        "ref": "28"
      },
      "geometry": {
        "type": "Polygon",
        "coordinates": [
          [
            [
              -120.6622779,
              35.2976535
            ],
            [
              -120.6621489,
              35.297528
            ],
            [
              -120.6621819,
              35.2975058
            ],
            [
              -120.6621269,
              35.2974524
            ],
            [
              -120.6620849,
              35.2974814
            ],
            [
              -120.6620469,
              35.2974444
            ],
            [
              -120.6620039,
              35.2974739
            ],
            [
              -120.6620109,
              35.2974808
            ],
            [
              -120.6619779,
              35.2975032
            ],
            [
              -120.6620189,
              35.2975433
            ],
            [
              -120.6620139,
              35.2975466
            ],
            [
              -120.6621879,
              35.2977154
            ],
            [
              -120.6622779,
              35.2976535
            ]
          ]
        ]
      },
      "id": "way/45600253"
    },
    {
      "type": "Feature",
      "properties": {
        "@id": "way/160998127",
        "addr:city": "San Luis Obispo",
        "addr:postcode": "93407",
        "addr:street": "Grand",
        "building": "yes",
        "name": "University House",
        "ref": "51"
      },
      "geometry": {
        "type": "Polygon",
        "coordinates": [
          [
            [
              -120.6626457,
              35.2983335
            ],
            [
              -120.6626465,
              35.2982505
            ],
            [
              -120.662627,
              35.29825
            ],
            [
              -120.6626281,
              35.2981109
            ],
            [
              -120.6626212,
              35.2981059
            ],
            [
              -120.6626671,
              35.2980691
            ],
            [
              -120.6626084,
              35.2980168
            ],
            [
              -120.6625549,
              35.2980603
            ],
            [
              -120.6624737,
              35.2980602
            ],
            [
              -120.6624718,
              35.2978958
            ],
            [
              -120.6623798,
              35.2978956
            ],
            [
              -120.6623799,
              35.2979968
            ],
            [
              -120.662369,
              35.2979966
            ],
            [
              -120.6623697,
              35.2980919
            ],
            [
              -120.6624321,
              35.2980917
            ],
            [
              -120.6624321,
              35.2981844
            ],
            [
              -120.6624455,
              35.2981844
            ],
            [
              -120.6624465,
              35.2982167
            ],
            [
              -120.6624941,
              35.2982165
            ],
            [
              -120.6624943,
              35.2982468
            ],
            [
              -120.6625428,
              35.298247
            ],
            [
              -120.6625413,
              35.2983328
            ],
            [
              -120.6626457,
              35.2983335
            ]
          ]
        ]
      },
      "id": "way/160998127"
    }
  ]
}