{
  "type": "FeatureCollection",
  "generator": "overpass-turbo",
  "copyright": "The data included in this document is from www.openstreetmap.org. The data is made available under ODbL.",
  "timestamp": "2026-03-04T06:03:14Z",
  "features": [
    {
      "type": "Feature",
      "properties": {
        "@id": "way/45594037",
        "building": "yes"
      },
      "geometry": {
        "type": "Polygon",
        "coordinates": [
          [
            [
              -120.6796754,
              35.3101413
            ],
            [
              -120.6795814,
              35.310045
            ],
            [
              -120.6795386,
              35.3100728
            ],
            [
              -120.6795558,
              35.3100903
            ],
            [
              -120.6794554,
              35.3101556
            ],
            [
              -120.6795323,
              35.3102343
            ],
            [
              -120.6796754,
              35.3101413
            ]
          ]
        ]
      },
      "id": "way/45594037"
    },
    {
      "type": "Feature",
      "properties": {
        "@id": "way/45594967",
        "building": "yes"
      },
      "geometry": {
        "type": "Polygon",
        "coordinates": [
          [
            [
              -120.6785878,
              35.3068392
            ],
            [
              -120.678711,
              35.3067505
            ],
            [
              -120.6786885,
              35.3067297
            ],
            [
              -120.6787088,
              35.3067151
            ],
            [
              -120.6786833,
              35.3066914
            ],
            [
              -120.6786632,
              35.3067059
            ],
            [
              -120.6786403,
              35.3066848
            ],
            [
              -120.6786055,
              35.3067098
            ],
            [
              -120.6785953,
              35.3067172
            ],
            [
              -120.6785803,
              35.306728
            ],
            [
              -120.6785696,
              35.3067357
            ],
            [
              -120.6785169,
              35.3067736
            ],
            [
              -120.6785878,
              35.3068392
            ]
          ]
        ]
      },
      "id": "way/45594967"
    },
    {
      "type": "Feature",
      "properties": {
        "@id": "way/45600378",
        "building": "yes",
        "name": "18B- Dairy Science Physiology Lab"
      },
      "geometry": {
        "type": "Polygon",
        "coordinates": [
          [
            [
              -120.6724403,
              35.3078422
            ],
            [
              -120.6724403,
              35.3078298
            ],
            [
              -120.6724643,
              35.3078298
            ],
            [
              -120.6724645,
              35.3077169
            ],
            [
              -120.6723798,
              35.3077168
            ],
            [
              -120.6723797,
              35.3077368
            ],
            [
              -120.6723916,
              35.3077368
            ],
            [
              -120.6723915,
              35.3078298
            ],
            [
              -120.6724169,
              35.3078298
            ],
            [
              -120.6724169,
              35.3078422
            ],
            [
              -120.6724403,
              35.3078422
            ]
          ]
        ]
      },
      "id": "way/45600378"
    },
    {
      "type": "Feature",
      "properties": {
        "@id": "way/45600379",
        "addr:city": "San Luis Obispo",
        "addr:postcode": "93407",
        "addr:street": "Grand",
        "building": "yes",
        "name": "Dairy Science",
        "ref": "18"
      },
      "geometry": {
        "type": "Polygon",
        "coordinates": [
          [
            [
              -120.6725949,
              35.3073109
            ],
            [
              -120.6725943,
              35.3072762
            ],
            [
              -120.6728637,
              35.3072728
            ],
            [
              -120.6728635,
              35.3072626
            ],
            [
              -120.6728614,
              35.307152
            ],
            [
              -120.6725927,
              35.3071553
            ],
            [
              -120.6725896,
              35.30699
            ],
            [
              -120.6725134,
              35.306991
            ],
            [
              -120.672513,
              35.3069705
            ],
            [
              -120.6724513,
              35.3069713
            ],
            [
              -120.6724517,
              35.3069914
            ],
            [
              -120.6724035,
              35.306992
            ],
            [
              -120.6724053,
              35.3070855
            ],
            [
              -120.6723873,
              35.3070857
            ],
            [
              -120.6723912,
              35.3072905
            ],
            [
              -120.6724203,
              35.3072902
            ],
            [
              -120.672421,
              35.3073262
            ],
            [
              -120.672518,
              35.307325
            ],
            [
              -120.6725177,
              35.3073119
            ],
            [
              -120.6725949,
              35.3073109
            ]
          ]
        ]
      },
      "id": "way/45600379"
    },
    {
      "type": "Feature",
      "properties": {
        "@id": "way/45636394",
        "building": "yes"
      },
      "geometry": {
        "type": "Polygon",
        "coordinates": [
          [
            [
              -120.6793897,
              35.3095965
            ],
            [
              -120.6789993,
              35.3091722
            ],
            [
              -120.6788735,
              35.3092459
            ],
            [
              -120.6792597,
              35.3096754
            ],
            [
              -120.6793897,
              35.3095965
            ]
          ]
        ]
      },
      "id": "way/45636394"
    },
    {
      "type": "Feature",
      "properties": {
        "@id": "way/45636395",
        "building": "barn"
      },
      "geometry": {
        "type": "Polygon",
        "coordinates": [
          [
            [
              -120.678477,
              35.3080974
            ],
            [
              -120.6786132,
              35.3079836
            ],
            [
              -120.6784505,
              35.3078539
            ],
            [
              -120.6783143,
              35.3079677
            ],
            [
              -120.678477,
              35.3080974
            ]
          ]
        ]
      },
      "id": "way/45636395"
    },
    {
      "type": "Feature",
      "properties": {
        "@id": "way/45637294",
        "building": "yes",
        "name": "Dairy Science Cow Shelter",
        "ref": "18G"
      },
      "geometry": {
        "type": "Polygon",
        "coordinates": [
          [
            [
              -120.6719984,
              35.3070804
            ],
            [
              -120.6718577,
              35.3066048
            ],
            [
              -120.6717199,
              35.3066272
            ],
            [
              -120.6718492,
              35.3071032
            ],
            [
              -120.6719238,
              35.3070966
            ],
            [
              -120.6719984,
              35.3070804
            ]
          ]
        ]
      },
      "id": "way/45637294"
    },
    {
      "type": "Feature",
      "properties": {
        "@id": "way/45637296",
        "building": "yes",
        "name": "18H- Dairy Science Hospital Barn"
      },
      "geometry": {
        "type": "Polygon",
        "coordinates": [
          [
            [
              -120.6735566,
              35.3072781
            ],
            [
              -120.6734117,
              35.3072797
            ],
            [
              -120.6734173,
              35.3076102
            ],
            [
              -120.6735622,
              35.3076086
            ],
            [
              -120.6735566,
              35.3072781
            ]
          ]
        ]
      },
      "id": "way/45637296"
    },
    {
      "type": "Feature",
      "properties": {
        "@id": "way/45637297",
        "addr:city": "San Luis Obispo",
        "addr:postcode": "93407",
        "addr:street": "Grand",
        "building": "yes",
        "name": "Dairy Products Technology Center",
        "ref": "18A"
      },
      "geometry": {
        "type": "Polygon",
        "coordinates": [
          [
            [
              -120.671997,
              35.3076434
            ],
            [
              -120.6719675,
              35.3075402
            ],
            [
              -120.6719818,
              35.3075375
            ],
            [
              -120.6719468,
              35.307415
            ],
            [
              -120.6719688,
              35.3074108
            ],
            [
              -120.6719359,
              35.3072958
            ],
            [
              -120.671869,
              35.3073085
            ],
            [
              -120.6718658,
              35.3072974
            ],
            [
              -120.6718311,
              35.307304
            ],
            [
              -120.671824,
              35.3072792
            ],
            [
              -120.6716826,
              35.3073061
            ],
            [
              -120.6716946,
              35.307348
            ],
            [
              -120.6715949,
              35.307367
            ],
            [
              -120.6715884,
              35.3073442
            ],
            [
              -120.6714496,
              35.3073707
            ],
            [
              -120.671457,
              35.3073964
            ],
            [
              -120.6712534,
              35.3074351
            ],
            [
              -120.6712655,
              35.3074774
            ],
            [
              -120.6711912,
              35.3074916
            ],
            [
              -120.6712451,
              35.3076802
            ],
            [
              -120.6712807,
              35.3076734
            ],
            [
              -120.6712964,
              35.3077286
            ],
            [
              -120.6713715,
              35.3077143
            ],
            [
              -120.6713805,
              35.3077455
            ],
            [
              -120.6717897,
              35.3076675
            ],
            [
              -120.6717939,
              35.3076821
            ],
            [
              -120.671997,
              35.3076434
            ]
          ]
        ]
      },
      "id": "way/45637297"
    },
    {
      "type": "Feature",
      "properties": {
        "@id": "way/45637298",
        "building": "stable",
        "description": "Cal Poly Rodeo Grounds 1/2 Covered Horse Stalls (South Green Panel)",
        "name": "Horse Stalls"
      },
      "geometry": {
        "type": "Polygon",
        "coordinates": [
          [
            [
              -120.6692943,
              35.3079645
            ],
            [
              -120.6698155,
              35.3073127
            ],
            [
              -120.6697311,
              35.3072596
            ],
            [
              -120.6692062,
              35.3079174
            ],
            [
              -120.6692467,
              35.3079395
            ],
            [
              -120.6692943,
              35.3079645
            ]
          ]
        ]
      },
      "id": "way/45637298"
    },
    {
      "type": "Feature",
      "properties": {
        "@id": "way/45637300",
        "building": "yes"
      },
      "geometry": {
        "type": "Polygon",
        "coordinates": [
          [
            [
              -120.6721443,
              35.3079288
            ],
            [
              -120.6721328,
              35.3078911
            ],
            [
              -120.671934,
              35.3079315
            ],
            [
              -120.6719455,
              35.3079692
            ],
            [
              -120.6721443,
              35.3079288
            ]
          ]
        ]
      },
      "id": "way/45637300"
    },
    {
      "type": "Feature",
      "properties": {
        "@id": "way/45637301",
        "building": "stable",
        "description": "Cal Poly Rodeo Grounds 1/2 Covered Horse Stalls (East Green Panel)",
        "name": "Horse Stalls"
      },
      "geometry": {
        "type": "Polygon",
        "coordinates": [
          [
            [
              -120.6698615,
              35.3087194
            ],
            [
              -120.6692869,
              35.3080096
            ],
            [
              -120.6692048,
              35.308057
            ],
            [
              -120.6697762,
              35.308763
            ],
            [
              -120.6698615,
              35.3087194
            ]
          ]
        ]
      },
      "id": "way/45637301"
    },
    {
      "type": "Feature",
      "properties": {
        "@id": "way/45637310",
        "building": "yes",
        "name": "Dairy Science Freestall A",
        "ref": "18J"
      },
      "geometry": {
        "type": "Polygon",
        "coordinates": [
          [
            [
              -120.6753095,
              35.3079581
            ],
            [
              -120.6752919,
              35.3072949
            ],
            [
              -120.6749512,
              35.3073009
            ],
            [
              -120.6749688,
              35.3079641
            ],
            [
              -120.6753095,
              35.3079581
            ]
          ]
        ]
      },
      "id": "way/45637310"
    },
    {
      "type": "Feature",
      "properties": {
        "@id": "way/45637311",
        "building": "yes",
        "name": "Dairy Science Freestall B",
        "ref": "18K"
      },
      "geometry": {
        "type": "Polygon",
        "coordinates": [
          [
            [
              -120.6743623,
              35.3083061
            ],
            [
              -120.6743365,
              35.3073125
            ],
            [
              -120.6739983,
              35.3073184
            ],
            [
              -120.6740241,
              35.3083119
            ],
            [
              -120.6743623,
              35.3083061
            ]
          ]
        ]
      },
      "id": "way/45637311"
    },
    {
      "type": "Feature",
      "properties": {
        "@id": "way/45637312",
        "building": "yes"
      },
      "geometry": {
        "type": "Polygon",
        "coordinates": [
          [
            [
              -120.6732246,
              35.308378
            ],
            [
              -120.6732218,
              35.3082163
            ],
            [
              -120.6726763,
              35.3082228
            ],
            [
              -120.6726792,
              35.3083844
            ],
            [
              -120.6732246,
              35.308378
            ]
          ]
        ]
      },
      "id": "way/45637312"
    },
    {
      "type": "Feature",
      "properties": {
        "@id": "way/45637313",
        "building": "yes"
      },
      "geometry": {
        "type": "Polygon",
        "coordinates": [
          [
            [
              -120.6735032,
              35.3079184
            ],
            [
              -120.6734994,
              35.3076555
            ],
            [
              -120.67342,
              35.3076562
            ],
            [
              -120.6734238,
              35.3079192
            ],
            [
              -120.6735032,
              35.3079184
            ]
          ]
        ]
      },
      "id": "way/45637313"
    },
    {
      "type": "Feature",
      "properties": {
        "@id": "way/45644092",
        "building": "yes"
      },
      "geometry": {
        "type": "Polygon",
        "coordinates": [
          [
            [
              -120.6652079,
              35.311003
            ],
            [
              -120.6645552,
              35.3105777
            ],
            [
              -120.6644588,
              35.3106762
            ],
            [
              -120.6651115,
              35.3111015
            ],
            [
              -120.6652079,
              35.311003
            ]
          ]
        ]
      },
      "id": "way/45644092"
    },
    {
      "type": "Feature",
      "properties": {
        "@id": "way/45644095",
        "building": "yes",
        "name": "18C- Dairy Science Artificial Insemination Lab"
      },
      "geometry": {
        "type": "Polygon",
        "coordinates": [
          [
            [
              -120.6713793,
              35.3065833
            ],
            [
              -120.6713694,
              35.3065516
            ],
            [
              -120.6712427,
              35.3065756
            ],
            [
              -120.6712517,
              35.3066082
            ],
            [
              -120.6713793,
              35.3065833
            ]
          ]
        ]
      },
      "id": "way/45644095"
    },
    {
      "type": "Feature",
      "properties": {
        "@id": "way/45644101",
        "building": "yes"
      },
      "geometry": {
        "type": "Polygon",
        "coordinates": [
          [
            [
              -120.6778114,
              35.311862
            ],
            [
              -120.6778097,
              35.3117206
            ],
            [
              -120.6774545,
              35.3117233
            ],
            [
              -120.6774561,
              35.3118647
            ],
            [
              -120.6778114,
              35.311862
            ]
          ]
        ]
      },
      "id": "way/45644101"
    },
    {
      "type": "Feature",
      "properties": {
        "@id": "way/45644102",
        "building": "yes"
      },
      "geometry": {
        "type": "Polygon",
        "coordinates": [
          [
            [
              -120.6802691,
              35.3112592
            ],
            [
              -120.680272,
              35.3110453
            ],
            [
              -120.6801736,
              35.3110444
            ],
            [
              -120.6801707,
              35.3112583
            ],
            [
              -120.6802691,
              35.3112592
            ]
          ]
        ]
      },
      "id": "way/45644102"
    },
    {
      "type": "Feature",
      "properties": {
        "@id": "way/45644104",
        "building": "yes"
      },
      "geometry": {
        "type": "Polygon",
        "coordinates": [
          [
            [
              -120.6784371,
              35.3120051
            ],
            [
              -120.6784334,
              35.3117877
            ],
            [
              -120.6779378,
              35.3117934
            ],
            [
              -120.6779415,
              35.312004
            ],
            [
              -120.6781454,
              35.3120016
            ],
            [
              -120.6781462,
              35.3120473
            ],
            [
              -120.6783527,
              35.3120449
            ],
            [
              -120.678352,
              35.3120061
            ],
            [
              -120.6784371,
              35.3120051
            ]
          ]
        ]
      },
      "id": "way/45644104"
    },
    {
      "type": "Feature",
      "properties": {
        "@id": "way/45644105",
        "building": "yes"
      },
      "geometry": {
        "type": "Polygon",
        "coordinates": [
          [
            [
              -120.6797416,
              35.3096205
            ],
            [
              -120.6797086,
              35.3095787
            ],
            [
              -120.6795724,
              35.3096552
            ],
            [
              -120.6796102,
              35.3096977
            ],
            [
              -120.6797416,
              35.3096205
            ]
          ]
        ]
      },
      "id": "way/45644105"
    },
    {
      "type": "Feature",
      "properties": {
        "@id": "way/45644106",
        "building": "yes"
      },
      "geometry": {
        "type": "Polygon",
        "coordinates": [
          [
            [
              -120.6797806,
              35.309978
            ],
            [
              -120.6797537,
              35.3099481
            ],
            [
              -120.6796236,
              35.3100261
            ],
            [
              -120.6796505,
              35.310056
            ],
            [
              -120.6797806,
              35.309978
            ]
          ]
        ]
      },
      "id": "way/45644106"
    },
    {
      "type": "Feature",
      "properties": {
        "@id": "way/45644107",
        "addr:city": "San Luis Obispo",
        "addr:postcode": "93407",
        "addr:street": "Grand",
        "building": "yes",
        "name": "Poultry Science"
      },
      "geometry": {
        "type": "Polygon",
        "coordinates": [
          [
            [
              -120.6792719,
              35.3115581
            ],
            [
              -120.6795826,
              35.3117426
            ],
            [
              -120.6796602,
              35.3116556
            ],
            [
              -120.6796903,
              35.3116735
            ],
            [
              -120.6796584,
              35.3117093
            ],
            [
              -120.6797942,
              35.3117899
            ],
            [
              -120.6798259,
              35.3117544
            ],
            [
              -120.6798551,
              35.3117717
            ],
            [
              -120.6798387,
              35.3117901
            ],
            [
              -120.6799327,
              35.3118459
            ],
            [
              -120.6800153,
              35.3117532
            ],
            [
              -120.679924,
              35.311699
            ],
            [
              -120.6799115,
              35.311713
            ],
            [
              -120.6798771,
              35.3116925
            ],
            [
              -120.6799255,
              35.3116384
            ],
            [
              -120.6797782,
              35.3115509
            ],
            [
              -120.6798021,
              35.3115241
            ],
            [
              -120.67951,
              35.3113507
            ],
            [
              -120.6794323,
              35.3114379
            ],
            [
              -120.6794499,
              35.3114484
            ],
            [
              -120.6794131,
              35.3114897
            ],
            [
              -120.6793607,
              35.3114586
            ],
            [
              -120.6792719,
              35.3115581
            ]
          ]
        ]
      },
      "id": "way/45644107"
    },
    {
      "type": "Feature",
      "properties": {
        "@id": "way/45644108",
        "building": "yes"
      },
      "geometry": {
        "type": "Polygon",
        "coordinates": [
          [
            [
              -120.6796634,
              35.3119825
            ],
            [
              -120.6796621,
              35.3120543
            ],
            [
              -120.6798725,
              35.3120569
            ],
            [
              -120.6798739,
              35.3119851
            ],
            [
              -120.6796634,
              35.3119825
            ]
          ]
        ]
      },
      "id": "way/45644108"
    },
    {
      "type": "Feature",
      "properties": {
        "@id": "way/45644176",
        "building": "yes"
      },
      "geometry": {
        "type": "Polygon",
        "coordinates": [
          [
            [
              -120.6793429,
              35.3117955
            ],
            [
              -120.6789543,
              35.3115667
            ],
            [
              -120.6788693,
              35.3116628
            ],
            [
              -120.679258,
              35.3118916
            ],
            [
              -120.6793429,
              35.3117955
            ]
          ]
        ]
      },
      "id": "way/45644176"
    },
    {
      "type": "Feature",
      "properties": {
        "@id": "way/45644177",
        "building": "yes"
      },
      "geometry": {
        "type": "Polygon",
        "coordinates": [
          [
            [
              -120.6790161,
              35.3112562
            ],
            [
              -120.6790155,
              35.3110363
            ],
            [
              -120.6788999,
              35.3110365
            ],
            [
              -120.6789005,
              35.3112564
            ],
            [
              -120.6790161,
              35.3112562
            ]
          ]
        ]
      },
      "id": "way/45644177"
    },
    {
      "type": "Feature",
      "properties": {
        "@id": "way/45644178",
        "building": "yes"
      },
      "geometry": {
        "type": "Polygon",
        "coordinates": [
          [
            [
              -120.6792149,
              35.3112872
            ],
            [
              -120.6792156,
              35.3109431
            ],
            [
              -120.6790926,
              35.3109429
            ],
            [
              -120.6790919,
              35.311287
            ],
            [
              -120.6792149,
              35.3112872
            ]
          ]
        ]
      },
      "id": "way/45644178"
    },
    {
      "type": "Feature",
      "properties": {
        "@id": "way/45644179",
        "building": "yes"
      },
      "geometry": {
        "type": "Polygon",
        "coordinates": [
          [
            [
              -120.6793874,
              35.3112885
            ],
            [
              -120.6793909,
              35.3109494
            ],
            [
              -120.6792924,
              35.3109487
            ],
            [
              -120.6792889,
              35.3112878
            ],
            [
              -120.6793874,
              35.3112885
            ]
          ]
        ]
      },
      "id": "way/45644179"
    },
    {
      "type": "Feature",
      "properties": {
        "@id": "way/45644180",
        "building": "yes"
      },
      "geometry": {
        "type": "Polygon",
        "coordinates": [
          [
            [
              -120.6798256,
              35.3112825
            ],
            [
              -120.6798305,
              35.3109791
            ],
            [
              -120.679727,
              35.310978
            ],
            [
              -120.6797221,
              35.3112814
            ],
            [
              -120.6798256,
              35.3112825
            ]
          ]
        ]
      },
      "id": "way/45644180"
    },
    {
      "type": "Feature",
      "properties": {
        "@id": "way/45644196",
        "building": "yes"
      },
      "geometry": {
        "type": "Polygon",
        "coordinates": [
          [
            [
              -120.6729561,
              35.3120475
            ],
            [
              -120.672956,
              35.3119596
            ],
            [
              -120.6727414,
              35.3119596
            ],
            [
              -120.6727415,
              35.3120475
            ],
            [
              -120.6729561,
              35.3120475
            ]
          ]
        ]
      },
      "id": "way/45644196"
    },
    {
      "type": "Feature",
      "properties": {
        "@id": "way/45644198",
        "building": "yes"
      },
      "geometry": {
        "type": "Polygon",
        "coordinates": [
          [
            [
              -120.6653273,
              35.3108752
            ],
            [
              -120.6654142,
              35.3107882
            ],
            [
              -120.6647653,
              35.3103569
            ],
            [
              -120.6646784,
              35.3104439
            ],
            [
              -120.6653273,
              35.3108752
            ]
          ]
        ]
      },
      "id": "way/45644198"
    },
    {
      "type": "Feature",
      "properties": {
        "@id": "way/45644200",
        "building": "yes"
      },
      "geometry": {
        "type": "Polygon",
        "coordinates": [
          [
            [
              -120.6732672,
              35.3122026
            ],
            [
              -120.6732669,
              35.3121236
            ],
            [
              -120.6730507,
              35.3121242
            ],
            [
              -120.6730511,
              35.3122032
            ],
            [
              -120.6732672,
              35.3122026
            ]
          ]
        ]
      },
      "id": "way/45644200"
    },
    {
      "type": "Feature",
      "properties": {
        "@id": "way/45644201",
        "building": "yes"
      },
      "geometry": {
        "type": "Polygon",
        "coordinates": [
          [
            [
              -120.6729376,
              35.3121912
            ],
            [
              -120.6729387,
              35.3121448
            ],
            [
              -120.6727034,
              35.3121413
            ],
            [
              -120.6727024,
              35.3121877
            ],
            [
              -120.6729376,
              35.3121912
            ]
          ]
        ]
      },
      "id": "way/45644201"
    },
    {
      "type": "Feature",
      "properties": {
        "@id": "way/45644202",
        "building": "yes"
      },
      "geometry": {
        "type": "Polygon",
        "coordinates": [
          [
            [
              -120.672512,
              35.31219
            ],
            [
              -120.6725127,
              35.312131
            ],
            [
              -120.6721889,
              35.3121285
            ],
            [
              -120.6721883,
              35.3121875
            ],
            [
              -120.672512,
              35.31219
            ]
          ]
        ]
      },
      "id": "way/45644202"
    },
    {
      "type": "Feature",
      "properties": {
        "@id": "way/45644203",
        "building": "yes"
      },
      "geometry": {
        "type": "Polygon",
        "coordinates": [
          [
            [
              -120.6725171,
              35.312037
            ],
            [
              -120.6725174,
              35.3119595
            ],
            [
              -120.672163,
              35.3119587
            ],
            [
              -120.6721628,
              35.3120362
            ],
            [
              -120.6725171,
              35.312037
            ]
          ]
        ]
      },
      "id": "way/45644203"
    },
    {
      "type": "Feature",
      "properties": {
        "@id": "way/45644204",
        "building": "yes"
      },
      "geometry": {
        "type": "Polygon",
        "coordinates": [
          [
            [
              -120.6800879,
              35.3112826
            ],
            [
              -120.6800879,
              35.3110445
            ],
            [
              -120.6799405,
              35.3110446
            ],
            [
              -120.6799405,
              35.3112826
            ],
            [
              -120.6800879,
              35.3112826
            ]
          ]
        ]
      },
      "id": "way/45644204"
    },
    {
      "type": "Feature",
      "properties": {
        "@id": "way/45644208",
        "addr:city": "San Luis Obispo",
        "addr:postcode": "93407",
        "addr:street": "Grand",
        "building": "yes",
        "name": "160B- Baseball Stadium, Team Room"
      },
      "geometry": {
        "type": "Polygon",
        "coordinates": [
          [
            [
              -120.6658308,
              35.3067489
            ],
            [
              -120.6658104,
              35.3065634
            ],
            [
              -120.665738,
              35.3065687
            ],
            [
              -120.6657584,
              35.3067542
            ],
            [
              -120.6658308,
              35.3067489
            ]
          ]
        ]
      },
      "id": "way/45644208"
    },
    {
      "type": "Feature",
      "properties": {
        "@id": "way/45644211",
        "addr:city": "San Luis Obispo",
        "addr:housenumber": "161",
        "addr:postcode": "93407",
        "addr:street": "Grand",
        "building": "yes",
        "name": "161A- Sports Complex Softball Stadium, Lockers"
      },
      "geometry": {
        "type": "Polygon",
        "coordinates": [
          [
            [
              -120.6666493,
              35.3067575
            ],
            [
              -120.6666296,
              35.3068204
            ],
            [
              -120.6668633,
              35.3068692
            ],
            [
              -120.6668831,
              35.3068063
            ],
            [
              -120.6666493,
              35.3067575
            ]
          ]
        ]
      },
      "id": "way/45644211"
    },
    {
      "type": "Feature",
      "properties": {
        "@id": "way/201474234",
        "building": "yes"
      },
      "geometry": {
        "type": "Polygon",
        "coordinates": [
          [
            [
              -120.6738125,
              35.3135755
            ],
            [
              -120.6739142,
              35.3133678
            ],
            [
              -120.6737908,
              35.3133276
            ],
            [
              -120.6736891,
              35.3135352
            ],
            [
              -120.6738125,
              35.3135755
            ]
          ]
        ]
      },
      "id": "way/201474234"
    },
    {
      "type": "Feature",
      "properties": {
        "@id": "way/201474236",
        "building": "yes"
      },
      "geometry": {
        "type": "Polygon",
        "coordinates": [
          [
            [
              -120.6745803,
              35.3144331
            ],
            [
              -120.6747137,
              35.3143195
            ],
            [
              -120.6746145,
              35.314242
            ],
            [
              -120.6744811,
              35.3143555
            ],
            [
              -120.6745803,
              35.3144331
            ]
          ]
        ]
      },
      "id": "way/201474236"
    },
    {
      "type": "Feature",
      "properties": {
        "@id": "way/201474237",
        "building": "yes"
      },
      "geometry": {
        "type": "Polygon",
        "coordinates": [
          [
            [
              -120.6745758,
              35.3136529
            ],
            [
              -120.6746936,
              35.3135599
            ],
            [
              -120.6746209,
              35.3134987
            ],
            [
              -120.6745032,
              35.3135916
            ],
            [
              -120.6745758,
              35.3136529
            ]
          ]
        ]
      },
      "id": "way/201474237"
    },
    {
      "type": "Feature",
      "properties": {
        "@id": "way/201474241",
        "building": "yes"
      },
      "geometry": {
        "type": "Polygon",
        "coordinates": [
          [
            [
              -120.6739963,
              35.3140523
            ],
            [
              -120.6741573,
              35.3139333
            ],
            [
              -120.6741137,
              35.3138941
            ],
            [
              -120.6741012,
              35.3139033
            ],
            [
              -120.6740018,
              35.3138138
            ],
            [
              -120.6738533,
              35.3139235
            ],
            [
              -120.6739963,
              35.3140523
            ]
          ]
        ]
      },
      "id": "way/201474241"
    },
    {
      "type": "Feature",
      "properties": {
        "@id": "way/205393247",
        "building": "yes"
      },
      "geometry": {
        "type": "Polygon",
        "coordinates": [
          [
            [
              -120.6730104,
              35.3112947
            ],
            [
              -120.6728848,
              35.3115063
            ],
            [
              -120.6729354,
              35.3115263
            ],
            [
              -120.673061,
              35.3113147
            ],
            [
              -120.6730104,
              35.3112947
            ]
          ]
        ]
      },
      "id": "way/205393247"
    },
    {
      "type": "Feature",
      "properties": {
        "@id": "way/205393254",
        "building": "yes"
      },
      "geometry": {
        "type": "Polygon",
        "coordinates": [
          [
            [
              -120.6682133,
              35.3080505
            ],
            [
              -120.6681537,
              35.3080939
            ],
            [
              -120.6682302,
              35.3081645
            ],
            [
              -120.6682497,
              35.3081817
            ],
            [
              -120.6683093,
              35.3081384
            ],
            [
              -120.6682133,
              35.3080505
            ]
          ]
        ]
      },
      "id": "way/205393254"
    },
    {
      "type": "Feature",
      "properties": {
        "@id": "way/205393256",
        "building": "yes"
      },
      "geometry": {
        "type": "Polygon",
        "coordinates": [
          [
            [
              -120.671734,
              35.3071518
            ],
            [
              -120.6716918,
              35.3071592
            ],
            [
              -120.6717004,
              35.3071919
            ],
            [
              -120.6717426,
              35.3071845
            ],
            [
              -120.671734,
              35.3071518
            ]
          ]
        ]
      },
      "id": "way/205393256"
    },
    {
      "type": "Feature",
      "properties": {
        "@id": "way/205393267",
        "building": "yes"
      },
      "geometry": {
        "type": "Polygon",
        "coordinates": [
          [
            [
              -120.665727,
              35.3073794
            ],
            [
              -120.6656943,
              35.3074079
            ],
            [
              -120.6657162,
              35.3074247
            ],
            [
              -120.665749,
              35.3073961
            ],
            [
              -120.665727,
              35.3073794
            ]
          ]
        ]
      },
      "id": "way/205393267"
    },
    {
      "type": "Feature",
      "properties": {
        "@id": "way/205393282",
        "building": "yes"
      },
      "geometry": {
        "type": "Polygon",
        "coordinates": [
          [
            [
              -120.6715645,
              35.3080029
            ],
            [
              -120.6713951,
              35.3080348
            ],
            [
              -120.6714328,
              35.3081682
            ],
            [
              -120.6716022,
              35.3081362
            ],
            [
              -120.6715645,
              35.3080029
            ]
          ]
        ]
      },
      "id": "way/205393282"
    },
    {
      "type": "Feature",
      "properties": {
        "@id": "way/205393298",
        "building": "yes"
      },
      "geometry": {
        "type": "Polygon",
        "coordinates": [
          [
            [
              -120.6678284,
              35.3080157
            ],
            [
              -120.6677722,
              35.3080565
            ],
            [
              -120.6678437,
              35.3081219
            ],
            [
              -120.6678999,
              35.3080811
            ],
            [
              -120.6678284,
              35.3080157
            ]
          ]
        ]
      },
      "id": "way/205393298"
    },
    {
      "type": "Feature",
      "properties": {
        "@id": "way/205393303",
        "building": "yes"
      },
      "geometry": {
        "type": "Polygon",
        "coordinates": [
          [
            [
              -120.6656043,
              35.3073014
            ],
            [
              -120.665523,
              35.3073533
            ],
            [
              -120.665548,
              35.3073795
            ],
            [
              -120.6656294,
              35.3073275
            ],
            [
              -120.6656043,
              35.3073014
            ]
          ]
        ]
      },
      "id": "way/205393303"
    },
    {
      "type": "Feature",
      "properties": {
        "@id": "way/205393305",
        "building": "yes"
      },
      "geometry": {
        "type": "Polygon",
        "coordinates": [
          [
            [
              -120.6659388,
              35.306743
            ],
            [
              -120.6659056,
              35.3067425
            ],
            [
              -120.6659044,
              35.3067904
            ],
            [
              -120.6659376,
              35.3067909
            ],
            [
              -120.6659388,
              35.306743
            ]
          ]
        ]
      },
      "id": "way/205393305"
    },
    {
      "type": "Feature",
      "properties": {
        "@id": "way/216889981",
        "building": "yes"
      },
      "geometry": {
        "type": "Polygon",
        "coordinates": [
          [
            [
              -120.6727518,
              35.3147417
            ],
            [
              -120.6727779,
              35.3147119
            ],
            [
              -120.672723,
              35.31468
            ],
            [
              -120.672697,
              35.3147099
            ],
            [
              -120.6727518,
              35.3147417
            ]
          ]
        ]
      },
      "id": "way/216889981"
    },
    {
      "type": "Feature",
      "properties": {
        "@id": "way/217198161",
        "building": "yes"
      },
      "geometry": {
        "type": "Polygon",
        "coordinates": [
          [
            [
              -120.6783378,
              35.3071214
            ],
            [
              -120.6784285,
              35.3070622
            ],
            [
              -120.6782211,
              35.3068506
            ],
            [
              -120.6781304,
              35.3069098
            ],
            [
              -120.6783378,
              35.3071214
            ]
          ]
        ]
      },
      "id": "way/217198161"
    },
    {
      "type": "Feature",
      "properties": {
        "@id": "way/320742009",
        "building": "yes"
      },
      "geometry": {
        "type": "Polygon",
        "coordinates": [
          [
            [
              -120.6733647,
              35.3105736
            ],
            [
              -120.6731949,
              35.3104866
            ],
            [
              -120.6731656,
              35.3105246
            ],
            [
              -120.6733354,
              35.3106116
            ],
            [
              -120.6733647,
              35.3105736
            ]
          ]
        ]
      },
      "id": "way/320742009"
    },
    {
      "type": "Feature",
      "properties": {
        "@id": "way/320742010",
        "building": "yes",
        "name": "Classroom"
      },
      "geometry": {
        "type": "Polygon",
        "coordinates": [
          [
            [
              -120.6732363,
              35.3100104
            ],
            [
              -120.6732337,
              35.3099427
            ],
            [
              -120.6731929,
              35.3099438
            ],
            [
              -120.6731955,
              35.3100115
            ],
            [
              -120.6732363,
              35.3100104
            ]
          ]
        ]
      },
      "id": "way/320742010"
    },
    {
      "type": "Feature",
      "properties": {
        "@id": "way/320742011",
        "building": "greenhouse",
        "name": "Polyponic Greenhouse"
      },
      "geometry": {
        "type": "Polygon",
        "coordinates": [
          [
            [
              -120.6737011,
              35.3101823
            ],
            [
              -120.6735352,
              35.3100856
            ],
            [
              -120.6734762,
              35.310153
            ],
            [
              -120.6736421,
              35.3102497
            ],
            [
              -120.6737011,
              35.3101823
            ]
          ]
        ]
      },
      "id": "way/320742011"
    },
    {
      "type": "Feature",
      "properties": {
        "@id": "way/320742012",
        "building": "yes"
      },
      "geometry": {
        "type": "Polygon",
        "coordinates": [
          [
            [
              -120.673137,
              35.3103849
            ],
            [
              -120.6730619,
              35.3103478
            ],
            [
              -120.6730236,
              35.3103994
            ],
            [
              -120.6730987,
              35.3104365
            ],
            [
              -120.673137,
              35.3103849
            ]
          ]
        ]
      },
      "id": "way/320742012"
    },
    {
      "type": "Feature",
      "properties": {
        "@id": "way/321174412",
        "building": "yes"
      },
      "geometry": {
        "type": "Polygon",
        "coordinates": [
          [
            [
              -120.6666785,
              35.3097323
            ],
            [
              -120.6666649,
              35.3096773
            ],
            [
              -120.6666008,
              35.3096879
            ],
            [
              -120.6666144,
              35.3097429
            ],
            [
              -120.6666785,
              35.3097323
            ]
          ]
        ]
      },
      "id": "way/321174412"
    },
    {
      "type": "Feature",
      "properties": {
        "@id": "way/329357369",
        "building": "yes"
      },
      "geometry": {
        "type": "Polygon",
        "coordinates": [
          [
            [
              -120.6661967,
              35.3068873
            ],
            [
              -120.6661757,
              35.306868
            ],
            [
              -120.6661243,
              35.3069051
            ],
            [
              -120.6661452,
              35.3069244
            ],
            [
              -120.6661967,
              35.3068873
            ]
          ]
        ]
      },
      "id": "way/329357369"
    },
    {
      "type": "Feature",
      "properties": {
        "@id": "way/779673605",
        "building": "yes",
        "name": "161C- Batting Cages 161 North"
      },
      "geometry": {
        "type": "Polygon",
        "coordinates": [
          [
            [
              -120.666089,
              35.3076436
            ],
            [
              -120.6662368,
              35.3076223
            ],
            [
              -120.6661723,
              35.3073621
            ],
            [
              -120.6660369,
              35.3073845
            ],
            [
              -120.666089,
              35.3076436
            ]
          ]
        ]
      },
      "id": "way/779673605"
    },
    {
      "type": "Feature",
      "properties": {
        "@id": "way/780321767",
        "building": "yes"
      },
      "geometry": {
        "type": "Polygon",
        "coordinates": [
          [
            [
              -120.6712953,
              35.3071792
            ],
            [
              -120.6712449,
              35.3070289
            ],
            [
              -120.6710765,
              35.3070665
            ],
            [
              -120.6711269,
              35.3072169
            ],
            [
              -120.6712953,
              35.3071792
            ]
          ]
        ]
      },
      "id": "way/780321767"
    },
    {
      "type": "Feature",
      "properties": {
        "@id": "way/803469317",
        "building": "yes"
      },
      "geometry": {
        "type": "Polygon",
        "coordinates": [
          [
            [
              -120.6737751,
              35.3119535
            ],
            [
              -120.6735847,
              35.3119524
            ],
            [
              -120.6735843,
              35.3119897
            ],
            [
              -120.6737479,
              35.3119907
            ],
            [
              -120.673747,
              35.3120964
            ],
            [
              -120.6737778,
              35.3120966
            ],
            [
              -120.6737751,
              35.3119535
            ]
          ]
        ]
      },
      "id": "way/803469317"
    },
    {
      "type": "Feature",
      "properties": {
        "@id": "way/865464125",
        "building": "yes"
      },
      "geometry": {
        "type": "Polygon",
        "coordinates": [
          [
            [
              -120.6718885,
              35.3121862
            ],
            [
              -120.671898,
              35.3121316
            ],
            [
              -120.6718722,
              35.3121286
            ],
            [
              -120.6718626,
              35.3121832
            ],
            [
              -120.6718885,
              35.3121862
            ]
          ]
        ]
      },
      "id": "way/865464125"
    },
    {
      "type": "Feature",
      "properties": {
        "@id": "way/865464126",
        "building": "yes"
      },
      "geometry": {
        "type": "Polygon",
        "coordinates": [
          [
            [
              -120.6719213,
              35.3121902
            ],
            [
              -120.6719298,
              35.3121352
            ],
            [
              -120.6719029,
              35.3121324
            ],
            [
              -120.6718944,
              35.3121875
            ],
            [
              -120.6719213,
              35.3121902
            ]
          ]
        ]
      },
      "id": "way/865464126"
    },
    {
      "type": "Feature",
      "properties": {
        "@id": "way/865464127",
        "building": "yes"
      },
      "geometry": {
        "type": "Polygon",
        "coordinates": [
          [
            [
              -120.6719542,
              35.3121941
            ],
            [
              -120.671962,
              35.3121374
            ],
            [
              -120.6719364,
              35.3121351
            ],
            [
              -120.6719286,
              35.3121918
            ],
            [
              -120.6719542,
              35.3121941
            ]
          ]
        ]
      },
      "id": "way/865464127"
    },
    {
      "type": "Feature",
      "properties": {
        "@id": "way/865464128",
        "building": "yes"
      },
      "geometry": {
        "type": "Polygon",
        "coordinates": [
          [
            [
              -120.6719908,
              35.312196
            ],
            [
              -120.6719982,
              35.3121395
            ],
            [
              -120.6719684,
              35.3121369
            ],
            [
              -120.671961,
              35.3121934
            ],
            [
              -120.6719908,
              35.312196
            ]
          ]
        ]
      },
      "id": "way/865464128"
    },
    {
      "type": "Feature",
      "properties": {
        "@id": "way/865472917",
        "building": "shed",
        "description": "Cal Poly Rodeo Grounds Hay Bunker/Storage",
        "name": "Hay Bunker"
      },
      "geometry": {
        "type": "Polygon",
        "coordinates": [
          [
            [
              -120.6698018,
              35.3072971
            ],
            [
              -120.6698387,
              35.3072608
            ],
            [
              -120.6697589,
              35.3072152
            ],
            [
              -120.6697235,
              35.307254
            ],
            [
              -120.6698018,
              35.3072971
            ]
          ]
        ]
      },
      "id": "way/865472917"
    },
    {
      "type": "Feature",
      "properties": {
        "@id": "way/865472919",
        "building": "yes"
      },
      "geometry": {
        "type": "Polygon",
        "coordinates": [
          [
            [
              -120.6733403,
              35.3122014
            ],
            [
              -120.6733432,
              35.3121446
            ],
            [
              -120.6733157,
              35.3121437
            ],
            [
              -120.6733128,
              35.3122004
            ],
            [
              -120.6733403,
              35.3122014
            ]
          ]
        ]
      },
      "id": "way/865472919"
    },
    {
      "type": "Feature",
      "properties": {
        "@id": "way/865472920",
        "building": "yes"
      },
      "geometry": {
        "type": "Polygon",
        "coordinates": [
          [
            [
              -120.6733722,
              35.3122022
            ],
            [
              -120.6733755,
              35.3121461
            ],
            [
              -120.6733483,
              35.312145
            ],
            [
              -120.673345,
              35.3122011
            ],
            [
              -120.6733722,
              35.3122022
            ]
          ]
        ]
      },
      "id": "way/865472920"
    },
    {
      "type": "Feature",
      "properties": {
        "@id": "way/865472921",
        "building": "yes"
      },
      "geometry": {
        "type": "Polygon",
        "coordinates": [
          [
            [
              -120.6737805,
              35.312146
            ],
            [
              -120.6737809,
              35.3121034
            ],
            [
              -120.6737418,
              35.3121032
            ],
            [
              -120.6737428,
              35.311998
            ],
            [
              -120.6735797,
              35.311997
            ],
            [
              -120.6735803,
              35.3119312
            ],
            [
              -120.6735472,
              35.311931
            ],
            [
              -120.6735466,
              35.3119958
            ],
            [
              -120.6735447,
              35.3121947
            ],
            [
              -120.6736177,
              35.3121951
            ],
            [
              -120.6736181,
              35.312145
            ],
            [
              -120.6737805,
              35.312146
            ]
          ]
        ]
      },
      "id": "way/865472921"
    },
    {
      "type": "Feature",
      "properties": {
        "@id": "way/865472922",
        "building": "yes"
      },
      "geometry": {
        "type": "Polygon",
        "coordinates": [
          [
            [
              -120.6728111,
              35.3106172
            ],
            [
              -120.6728107,
              35.310589
            ],
            [
              -120.6727815,
              35.3105892
            ],
            [
              -120.6727819,
              35.3106174
            ],
            [
              -120.6728111,
              35.3106172
            ]
          ]
        ]
      },
      "id": "way/865472922"
    },
    {
      "type": "Feature",
      "properties": {
        "@id": "way/865472923",
        "building": "yes"
      },
      "geometry": {
        "type": "Polygon",
        "coordinates": [
          [
            [
              -120.673073,
              35.3104558
            ],
            [
              -120.6730441,
              35.3104385
            ],
            [
              -120.6730308,
              35.3104533
            ],
            [
              -120.6730596,
              35.3104706
            ],
            [
              -120.673073,
              35.3104558
            ]
          ]
        ]
      },
      "id": "way/865472923"
    },
    {
      "type": "Feature",
      "properties": {
        "@id": "way/865472924",
        "building": "yes"
      },
      "geometry": {
        "type": "Polygon",
        "coordinates": [
          [
            [
              -120.6730344,
              35.3104394
            ],
            [
              -120.6729894,
              35.3104154
            ],
            [
              -120.6729743,
              35.3104342
            ],
            [
              -120.6730193,
              35.3104583
            ],
            [
              -120.6730344,
              35.3104394
            ]
          ]
        ]
      },
      "id": "way/865472924"
    },
    {
      "type": "Feature",
      "properties": {
        "@id": "way/865472925",
        "building": "barn",
        "building:levels": "1",
        "description": "Cal Poly Rodeo Grounds Hay Storage Barn/Feedlot.",
        "name": "Hay Storage Barn"
      },
      "geometry": {
        "type": "Polygon",
        "coordinates": [
          [
            [
              -120.6716838,
              35.3096957
            ],
            [
              -120.6713096,
              35.3094525
            ],
            [
              -120.6711323,
              35.3096467
            ],
            [
              -120.6715119,
              35.3098768
            ],
            [
              -120.6716838,
              35.3096957
            ]
          ]
        ]
      },
      "id": "way/865472925"
    },
    {
      "type": "Feature",
      "properties": {
        "@id": "way/865472937",
        "building": "yes"
      },
      "geometry": {
        "type": "Polygon",
        "coordinates": [
          [
            [
              -120.6744661,
              35.3137682
            ],
            [
              -120.6743812,
              35.3138145
            ],
            [
              -120.6744139,
              35.3138544
            ],
            [
              -120.6744988,
              35.3138081
            ],
            [
              -120.6744661,
              35.3137682
            ]
          ]
        ]
      },
      "id": "way/865472937"
    },
    {
      "type": "Feature",
      "properties": {
        "@id": "way/865472938",
        "building": "yes"
      },
      "geometry": {
        "type": "Polygon",
        "coordinates": [
          [
            [
              -120.6745512,
              35.3137634
            ],
            [
              -120.6745318,
              35.3137391
            ],
            [
              -120.6744763,
              35.3137687
            ],
            [
              -120.6744958,
              35.3137929
            ],
            [
              -120.6745512,
              35.3137634
            ]
          ]
        ]
      },
      "id": "way/865472938"
    },
    {
      "type": "Feature",
      "properties": {
        "@id": "way/865472939",
        "building": "yes"
      },
      "geometry": {
        "type": "Polygon",
        "coordinates": [
          [
            [
              -120.6742821,
              35.3135919
            ],
            [
              -120.6742579,
              35.3135681
            ],
            [
              -120.6741768,
              35.313623
            ],
            [
              -120.674201,
              35.3136469
            ],
            [
              -120.6742821,
              35.3135919
            ]
          ]
        ]
      },
      "id": "way/865472939"
    },
    {
      "type": "Feature",
      "properties": {
        "@id": "way/865472940",
        "building": "yes"
      },
      "geometry": {
        "type": "Polygon",
        "coordinates": [
          [
            [
              -120.6743446,
              35.3135549
            ],
            [
              -120.6743193,
              35.31353
            ],
            [
              -120.6742699,
              35.3135635
            ],
            [
              -120.6742952,
              35.3135884
            ],
            [
              -120.6743446,
              35.3135549
            ]
          ]
        ]
      },
      "id": "way/865472940"
    },
    {
      "type": "Feature",
      "properties": {
        "@id": "way/865472941",
        "building": "yes"
      },
      "geometry": {
        "type": "Polygon",
        "coordinates": [
          [
            [
              -120.6739848,
              35.3136059
            ],
            [
              -120.6739278,
              35.3135816
            ],
            [
              -120.6739118,
              35.3136065
            ],
            [
              -120.6739689,
              35.3136308
            ],
            [
              -120.6739848,
              35.3136059
            ]
          ]
        ]
      },
      "id": "way/865472941"
    },
    {
      "type": "Feature",
      "properties": {
        "@id": "way/865472942",
        "building": "yes"
      },
      "geometry": {
        "type": "Polygon",
        "coordinates": [
          [
            [
              -120.6738305,
              35.3136238
            ],
            [
              -120.6737126,
              35.3135753
            ],
            [
              -120.6736808,
              35.3136269
            ],
            [
              -120.6737987,
              35.3136753
            ],
            [
              -120.6738305,
              35.3136238
            ]
          ]
        ]
      },
      "id": "way/865472942"
    },
    {
      "type": "Feature",
      "properties": {
        "@id": "way/865472943",
        "building": "yes"
      },
      "geometry": {
        "type": "Polygon",
        "coordinates": [
          [
            [
              -120.6739797,
              35.3136391
            ],
            [
              -120.6739305,
              35.3136163
            ],
            [
              -120.6739106,
              35.3136448
            ],
            [
              -120.6739597,
              35.3136677
            ],
            [
              -120.6739797,
              35.3136391
            ]
          ]
        ]
      },
      "id": "way/865472943"
    },
    {
      "type": "Feature",
      "properties": {
        "@id": "way/865472944",
        "building": "yes"
      },
      "geometry": {
        "type": "Polygon",
        "coordinates": [
          [
            [
              -120.6738593,
              35.3136642
            ],
            [
              -120.6738209,
              35.3136466
            ],
            [
              -120.6738013,
              35.3136752
            ],
            [
              -120.6738397,
              35.3136928
            ],
            [
              -120.6738593,
              35.3136642
            ]
          ]
        ]
      },
      "id": "way/865472944"
    },
    {
      "type": "Feature",
      "properties": {
        "@id": "way/865472945",
        "building": "yes"
      },
      "geometry": {
        "type": "Polygon",
        "coordinates": [
          [
            [
              -120.6738171,
              35.3137514
            ],
            [
              -120.6737316,
              35.3137233
            ],
            [
              -120.6737168,
              35.3137533
            ],
            [
              -120.6738023,
              35.3137814
            ],
            [
              -120.6738171,
              35.3137514
            ]
          ]
        ]
      },
      "id": "way/865472945"
    },
    {
      "type": "Feature",
      "properties": {
        "@id": "way/865472946",
        "building": "yes"
      },
      "geometry": {
        "type": "Polygon",
        "coordinates": [
          [
            [
              -120.6736657,
              35.3137014
            ],
            [
              -120.6736216,
              35.3136877
            ],
            [
              -120.6736036,
              35.3137261
            ],
            [
              -120.6736477,
              35.3137399
            ],
            [
              -120.6736657,
              35.3137014
            ]
          ]
        ]
      },
      "id": "way/865472946"
    },
    {
      "type": "Feature",
      "properties": {
        "@id": "way/865472947",
        "building": "yes"
      },
      "geometry": {
        "type": "Polygon",
        "coordinates": [
          [
            [
              -120.673746,
              35.3138832
            ],
            [
              -120.6737658,
              35.3138452
            ],
            [
              -120.6737376,
              35.3138354
            ],
            [
              -120.6737178,
              35.3138734
            ],
            [
              -120.673746,
              35.3138832
            ]
          ]
        ]
      },
      "id": "way/865472947"
    },
    {
      "type": "Feature",
      "properties": {
        "@id": "way/865472948",
        "building": "yes"
      },
      "geometry": {
        "type": "Polygon",
        "coordinates": [
          [
            [
              -120.6738267,
              35.3139207
            ],
            [
              -120.6737987,
              35.3139066
            ],
            [
              -120.673785,
              35.3139247
            ],
            [
              -120.6738129,
              35.3139388
            ],
            [
              -120.6738267,
              35.3139207
            ]
          ]
        ]
      },
      "id": "way/865472948"
    },
    {
      "type": "Feature",
      "properties": {
        "@id": "way/865472949",
        "building": "yes"
      },
      "geometry": {
        "type": "Polygon",
        "coordinates": [
          [
            [
              -120.6737592,
              35.3141345
            ],
            [
              -120.6737269,
              35.3141144
            ],
            [
              -120.6737039,
              35.3141389
            ],
            [
              -120.6737362,
              35.3141591
            ],
            [
              -120.6737592,
              35.3141345
            ]
          ]
        ]
      },
      "id": "way/865472949"
    },
    {
      "type": "Feature",
      "properties": {
        "@id": "way/865472950",
        "building": "yes"
      },
      "geometry": {
        "type": "Polygon",
        "coordinates": [
          [
            [
              -120.6741614,
              35.3141718
            ],
            [
              -120.6741416,
              35.3141496
            ],
            [
              -120.6741191,
              35.314163
            ],
            [
              -120.674139,
              35.3141852
            ],
            [
              -120.6741614,
              35.3141718
            ]
          ]
        ]
      },
      "id": "way/865472950"
    },
    {
      "type": "Feature",
      "properties": {
        "@id": "way/943592925",
        "building": "yes",
        "name": "180- Dairy Science Methane Power Plant"
      },
      "geometry": {
        "type": "Polygon",
        "coordinates": [
          [
            [
              -120.6730598,
              35.3071022
            ],
            [
              -120.673062,
              35.3070691
            ],
            [
              -120.6730197,
              35.3070672
            ],
            [
              -120.6730175,
              35.3071003
            ],
            [
              -120.6730598,
              35.3071022
            ]
          ]
        ]
      },
      "id": "way/943592925"
    },
    {
      "type": "Feature",
      "properties": {
        "@id": "way/1119416914",
        "building": "stable",
        "description": "Cal Poly Rodeo Grounds Livestock Feedlot Pens (Steers and Calves)",
        "name": "Livestock  Feedlot Pens"
      },
      "geometry": {
        "type": "Polygon",
        "coordinates": [
          [
            [
              -120.6716399,
              35.3098922
            ],
            [
              -120.6715582,
              35.3098356
            ],
            [
              -120.6715108,
              35.3098825
            ],
            [
              -120.6711232,
              35.3096465
            ],
            [
              -120.6710847,
              35.3096863
            ],
            [
              -120.6711232,
              35.3097422
            ],
            [
              -120.671455,
              35.3099409
            ],
            [
              -120.6715462,
              35.3099365
            ],
            [
              -120.6715951,
              35.309931
            ],
            [
              -120.6716398,
              35.3098999
            ],
            [
              -120.6716399,
              35.3098922
            ]
          ]
        ]
      },
      "id": "way/1119416914"
    },
    {
      "type": "Feature",
      "properties": {
        "@id": "way/1119416915",
        "building": "stable",
        "description": "Cal Poly Rodeo Grounds Livestock Feedlot Pens (Steers and Calves)",
        "name": "Livestock Feedlot Pens"
      },
      "geometry": {
        "type": "Polygon",
        "coordinates": [
          [
            [
              -120.6716952,
              35.309698
            ],
            [
              -120.671743,
              35.3096514
            ],
            [
              -120.6714226,
              35.3094627
            ],
            [
              -120.6713122,
              35.3094494
            ],
            [
              -120.6716952,
              35.309698
            ]
          ]
        ]
      },
      "id": "way/1119416915"
    },
    {
      "type": "Feature",
      "properties": {
        "@id": "way/1119416917",
        "building": "yes",
        "building:levels": "1",
        "description": "Cal Poly Rodeo Office and Deck at the Rodeo Grounds",
        "name": "Cal Poly Rodeo Office",
        "wheelchair": "yes"
      },
      "geometry": {
        "type": "Polygon",
        "coordinates": [
          [
            [
              -120.6707837,
              35.3088357
            ],
            [
              -120.6708599,
              35.3087546
            ],
            [
              -120.6707948,
              35.3087122
            ],
            [
              -120.6707829,
              35.3087226
            ],
            [
              -120.6707559,
              35.3087072
            ],
            [
              -120.6707775,
              35.3086867
            ],
            [
              -120.6707559,
              35.3086739
            ],
            [
              -120.6707328,
              35.3086952
            ],
            [
              -120.6706697,
              35.3086534
            ],
            [
              -120.6706381,
              35.3086858
            ],
            [
              -120.6706608,
              35.3086999
            ],
            [
              -120.6706211,
              35.3087392
            ],
            [
              -120.6707837,
              35.3088357
            ]
          ]
        ]
      },
      "id": "way/1119416917"
    },
    {
      "type": "Feature",
      "properties": {
        "@id": "way/1119416919",
        "building": "shed",
        "description": "Hay Bunker/Storage",
        "name": "Hay Bunker"
      },
      "geometry": {
        "type": "Polygon",
        "coordinates": [
          [
            [
              -120.6699535,
              35.3090283
            ],
            [
              -120.6699797,
              35.308995
            ],
            [
              -120.6698926,
              35.308957
            ],
            [
              -120.6698688,
              35.3089947
            ],
            [
              -120.6699535,
              35.3090283
            ]
          ]
        ]
      },
      "id": "way/1119416919"
    },
    {
      "type": "Feature",
      "properties": {
        "@id": "way/1119416921",
        "building": "stable",
        "description": "Cal Poly Rodeo Grounds Covered Horse Stalls (South Pipe)",
        "name": "Horse Stalls"
      },
      "geometry": {
        "type": "Polygon",
        "coordinates": [
          [
            [
              -120.6690715,
              35.3079649
            ],
            [
              -120.6697245,
              35.3071172
            ],
            [
              -120.669636,
              35.3070782
            ],
            [
              -120.6689759,
              35.3079187
            ],
            [
              -120.6690715,
              35.3079649
            ]
          ]
        ]
      },
      "id": "way/1119416921"
    },
    {
      "type": "Feature",
      "properties": {
        "@id": "way/1119416925",
        "building": "stable",
        "description": "Cal Poly Rodeo Grounds Covered Horse Stalls (East Pipe)",
        "name": "Horse Stalls"
      },
      "geometry": {
        "type": "Polygon",
        "coordinates": [
          [
            [
              -120.6691174,
              35.3081684
            ],
            [
              -120.6690271,
              35.3082141
            ],
            [
              -120.6696677,
              35.3089751
            ],
            [
              -120.6697423,
              35.3089297
            ],
            [
              -120.6691174,
              35.3081684
            ]
          ]
        ]
      },
      "id": "way/1119416925"
    },
    {
      "type": "Feature",
      "properties": {
        "@id": "way/1119416926",
        "building": "shed",
        "description": "Cal Poly Rodeo Grounds Hay Bunker/Storage",
        "name": "Hay Bunker"
      },
      "geometry": {
        "type": "Polygon",
        "coordinates": [
          [
            [
              -120.6690265,
              35.308207
            ],
            [
              -120.6691088,
              35.3081646
            ],
            [
              -120.6690815,
              35.3081286
            ],
            [
              -120.6689996,
              35.3081711
            ],
            [
              -120.6690265,
              35.308207
            ]
          ]
        ]
      },
      "id": "way/1119416926"
    },
    {
      "type": "Feature",
      "properties": {
        "@id": "way/1119416929",
        "building": "shed",
        "building:levels": "2",
        "description": "Cal Poly Rodeo Grounds Announcer's Booth",
        "name": "Announcer's Booth"
      },
      "geometry": {
        "type": "Polygon",
        "coordinates": [
          [
            [
              -120.6709581,
              35.3093501
            ],
            [
              -120.6709242,
              35.3093301
            ],
            [
              -120.6708814,
              35.3093705
            ],
            [
              -120.6709124,
              35.3093926
            ],
            [
              -120.6709581,
              35.3093501
            ]
          ]
        ]
      },
      "id": "way/1119416929"
    },
    {
      "type": "Feature",
      "properties": {
        "@id": "way/1119416930",
        "building": "stable",
        "description": "Cal Poly Rodeo Grounds Livestock Pens",
        "name": "Livestock Pens"
      },
      "geometry": {
        "type": "Polygon",
        "coordinates": [
          [
            [
              -120.6706168,
              35.3092227
            ],
            [
              -120.6705726,
              35.3092729
            ],
            [
              -120.6705106,
              35.3092354
            ],
            [
              -120.6704079,
              35.3093445
            ],
            [
              -120.670762,
              35.309558
            ],
            [
              -120.6707977,
              35.3095608
            ],
            [
              -120.6708255,
              35.3095431
            ],
            [
              -120.6709116,
              35.3094544
            ],
            [
              -120.6708103,
              35.3093917
            ],
            [
              -120.6708005,
              35.3093409
            ],
            [
              -120.6706168,
              35.3092227
            ]
          ]
        ]
      },
      "id": "way/1119416930"
    }
  ]
}